{
"type": "FeatureCollection",
"name": "rd-provinces",
"crs": { "type": "name", "properties": { "name": "urn:ogc:def:crs:OGC:1.3:CRS84" } },
"features": [
{ "type": "Feature", "properties": { "PROV": "01", "region_code": "10", "province": "Distrito Nacional", "province_key": "DISTRITO NACIONAL", "businesses": 39253.0, "population": 1074546.0, "business_density": 36.529846093140726, "opportunity": 100.0, "label": "Distrito Nacional: 36.5 empresas por 1,000 hab." }, "geometry": { "type": "Polygon", "coordinates": [ [ [ -69.974802762522117, 18.545267729584012 ], [ -69.949528449920308, 18.514766948710765 ], [ -69.874630032850192, 18.499444522574738 ], [ -69.883943165753749, 18.466882583598448 ], [ -69.988725236631311, 18.422738782393075 ], [ -69.967629857833387, 18.478975739280315 ], [ -69.999265785075409, 18.50529627645264 ], [ -69.974802762522117, 18.545267729584012 ] ] ] } },
{ "type": "Feature", "properties": { "PROV": "02", "region_code": "05", "province": "Azua", "province_key": "AZUA", "businesses": 708.0, "population": 223906.0, "business_density": 3.162041213723616, "opportunity": 4.8870652603604423, "label": "Azua: 3.2 empresas por 1,000 hab." }, "geometry": { "type": "Polygon", "coordinates": [ [ [ -70.862635848767567, 19.001319084670008 ], [ -70.83772099763668, 18.989236434282358 ], [ -70.816618655413137, 18.838461319273563 ], [ -70.755413148676837, 18.772419853948744 ], [ -70.683981629248052, 18.757256200886196 ], [ -70.696079191293791, 18.685259284329668 ], [ -70.661465140297992, 18.654257235436344 ], [ -70.671026858777267, 18.593758979270806 ], [ -70.609840523809595, 18.530611506990084 ], [ -70.505026993479774, 18.491150305243789 ], [ -70.469381760304131, 18.409968020693388 ], [ -70.502410594956359, 18.288400823653625 ], [ -70.589139295591465, 18.273462369291622 ], [ -70.581813844767424, 18.405920868956205 ], [ -70.672618936591093, 18.431167961683585 ], [ -70.710867477467076, 18.408484643249853 ], [ -70.726931673326376, 18.354798088951334 ], [ -70.804047558335228, 18.35346984305647 ], [ -70.828348266419368, 18.329528249149465 ], [ -70.841583957861829, 18.347663113360344 ], [ -70.914285188994384, 18.264226493569389 ], [ -70.965534940386988, 18.251278086518422 ], [ -70.948579791189502, 18.310732416359549 ], [ -71.047051151941105, 18.396101811011004 ], [ -71.018111580405019, 18.411997897095389 ], [ -70.995714268385754, 18.48789481733807 ], [ -71.057515302265855, 18.500050034693729 ], [ -71.037330647609593, 18.525513457333254 ], [ -71.01122531376889, 18.50220293179817 ], [ -70.985989210338232, 18.525782087281552 ], [ -71.121059656184229, 18.561344202079525 ], [ -71.152820655606092, 18.594189948246751 ], [ -71.160186070666015, 18.622094660390797 ], [ -71.105117883818991, 18.643837667596348 ], [ -71.077573810261143, 18.693498931603706 ], [ -71.051620820752774, 18.677956410805326 ], [ -71.054072831838511, 18.755627946078825 ], [ -71.029921271052501, 18.787834869038029 ], [ -71.009386311098993, 18.750019303616082 ], [ -70.986661800258787, 18.762753257106539 ], [ -70.972234641820307, 18.805753640830279 ], [ -70.995916054945852, 18.897955887388775 ], [ -70.923946749206465, 18.924386709871712 ], [ -70.931344001998411, 18.960428783556566 ], [ -70.862635848767567, 19.001319084670008 ] ] ] } },
{ "type": "Feature", "properties": { "PROV": "03", "region_code": "06", "province": "Baoruco", "province_key": "BAORUCO", "businesses": 202.0, "population": 102452.0, "business_density": 1.9716550189356969, "opportunity": 1.4939405142471158, "label": "Baoruco: 2.0 empresas por 1,000 hab." }, "geometry": { "type": "Polygon", "coordinates": [ [ [ -71.572125147297569, 18.653686930475867 ], [ -71.358619227496021, 18.587770441426262 ], [ -71.317689486834453, 18.625036976888136 ], [ -71.186837518452535, 18.626150112966172 ], [ -71.121059656184229, 18.561344202079525 ], [ -70.984774225190222, 18.519563796563176 ], [ -71.01122531376889, 18.50220293179817 ], [ -71.037330647609593, 18.525513457333254 ], [ -71.053139256713905, 18.478420182221079 ], [ -71.145172298013264, 18.440569548074109 ], [ -71.131058353913303, 18.420484618165531 ], [ -71.206896081365983, 18.376275871512661 ], [ -71.164977036736246, 18.329322289586603 ], [ -71.211362655014113, 18.325502083251536 ], [ -71.297716895328577, 18.419246070183206 ], [ -71.414126700385324, 18.375391709605815 ], [ -71.499955641495191, 18.458265447774419 ], [ -71.626036762509841, 18.495667153868013 ], [ -71.593239589967766, 18.6036874625146 ], [ -71.608783629446421, 18.6318006485299 ], [ -71.572125147297569, 18.653686930475867 ] ] ] } },
{ "type": "Feature", "properties": { "PROV": "04", "region_code": "06", "province": "Barahona", "province_key": "BARAHONA", "businesses": 665.0, "population": 188694.0, "business_density": 3.524224405651478, "opportunity": 5.9194468156385502, "label": "Barahona: 3.5 empresas por 1,000 hab." }, "geometry": { "type": "Polygon", "coordinates": [ [ [ -71.03977701654172, 18.496229128510979 ], [ -70.998466419672866, 18.492404114584566 ], [ -70.995651736396539, 18.469149256509766 ], [ -71.046643150537648, 18.39448128183302 ], [ -70.982810865650777, 18.358214508653685 ], [ -70.949697814544962, 18.295376536625373 ], [ -70.968727408051777, 18.257217934006743 ], [ -71.046875239990754, 18.316722756129789 ], [ -71.098426005759435, 18.281249577737608 ], [ -71.107961598628108, 18.251808536920791 ], [ -71.055184438438744, 18.155132125685807 ], [ -71.073044246002624, 18.108460791004731 ], [ -71.272286240960455, 17.851907388438025 ], [ -71.310569995047288, 17.898382638838072 ], [ -71.298135268390254, 17.912191098075819 ], [ -71.381624532134879, 17.928651715222159 ], [ -71.437895980727404, 17.980114670180466 ], [ -71.430109033947105, 18.018146933700628 ], [ -71.408686177248512, 18.011707572947763 ], [ -71.383963925802078, 18.048751186931227 ], [ -71.40554471287011, 18.099826648150589 ], [ -71.385571067251632, 18.121073582177694 ], [ -71.425466399825282, 18.137867944559975 ], [ -71.42493026739767, 18.196749125659238 ], [ -71.383498989134665, 18.188644286027191 ], [ -71.373077281373526, 18.26203791857882 ], [ -71.393082100966083, 18.276272023067111 ], [ -71.365236481579785, 18.307536834657572 ], [ -71.273681658199393, 18.265279381938239 ], [ -71.228854097949139, 18.320525747930276 ], [ -71.169421275698483, 18.325239911428845 ], [ -71.162865336167783, 18.345102955225254 ], [ -71.205227230757345, 18.353334323815378 ], [ -71.193243627288936, 18.396073182323612 ], [ -71.03977701654172, 18.496229128510979 ] ] ] } },
{ "type": "Feature", "properties": { "PROV": "05", "region_code": "04", "province": "Dajabon", "province_key": "DAJABON", "businesses": 357.0, "population": 67479.0, "business_density": 5.2905348330591737, "opportunity": 10.954209186704889, "label": "Dajabon: 5.3 empresas por 1,000 hab." }, "geometry": { "type": "Polygon", "coordinates": [ [ [ -71.60178951151002, 19.629304669401179 ], [ -71.562749279478055, 19.607785354519304 ], [ -71.52032781835544, 19.622889054228612 ], [ -71.503017962115393, 19.57078067009121 ], [ -71.42563902197243, 19.531542985733481 ], [ -71.465699298276917, 19.494077393152676 ], [ -71.466942638218768, 19.383832922282771 ], [ -71.519415193558032, 19.321562937798522 ], [ -71.508863617621373, 19.279352453725519 ], [ -71.522182074582858, 19.263515608282127 ], [ -71.590858245428507, 19.28392698678331 ], [ -71.634521218960188, 19.230085741119378 ], [ -71.697080387017195, 19.240675063612034 ], [ -71.72539200142576, 19.278272980627996 ], [ -71.732667196256116, 19.262751240062588 ], [ -71.782733733476391, 19.329517677229216 ], [ -71.713641511323047, 19.371358161763773 ], [ -71.693954804662894, 19.360122087210883 ], [ -71.6783838070684, 19.444410072943285 ], [ -71.746039679164056, 19.633688789961877 ], [ -71.654957163254636, 19.603258984588489 ], [ -71.60178951151002, 19.629304669401179 ] ] ] } },
{ "type": "Feature", "properties": { "PROV": "06", "region_code": "03", "province": "Duarte", "province_key": "DUARTE", "businesses": 3221.0, "population": 302126.0, "business_density": 10.66111489908184, "opportunity": 26.262726878520944, "label": "Duarte: 10.7 empresas por 1,000 hab." }, "geometry": { "type": "Polygon", "coordinates": [ [ [ -70.253945950881274, 19.522664401710973 ], [ -70.138411160401418, 19.508400589346884 ], [ -70.12540218943515, 19.428837687605913 ], [ -70.078702020549343, 19.429654512206255 ], [ -70.10355730287182, 19.352466343398483 ], [ -70.015737892257491, 19.321192285609882 ], [ -70.017199830967954, 19.274554717204797 ], [ -69.780549029949412, 19.201944479965217 ], [ -69.742871214398605, 19.225676506859667 ], [ -69.65531464867243, 19.207345456613726 ], [ -69.720361813759752, 19.140467565178451 ], [ -69.748382842509372, 19.15037462488284 ], [ -69.720304728215055, 19.102809414468496 ], [ -69.876285054045027, 19.086276927016581 ], [ -69.873658430714855, 19.044036816502164 ], [ -69.910442036056523, 19.05359580171385 ], [ -69.894797406479825, 19.097106540812472 ], [ -69.935195220646136, 19.124281309549932 ], [ -69.996313758025693, 19.073160634649255 ], [ -70.076423429674264, 19.151520667302584 ], [ -70.177838963975006, 19.165701430766187 ], [ -70.208589604346386, 19.141776136869591 ], [ -70.322449083605221, 19.181920949845065 ], [ -70.3709686314333, 19.253502758789615 ], [ -70.343143692041494, 19.297619419902858 ], [ -70.353321206973931, 19.34090986252145 ], [ -70.258405211602906, 19.448592050671294 ], [ -70.295208119609313, 19.482276823378438 ], [ -70.257870709777691, 19.48680306107585 ], [ -70.253945950881274, 19.522664401710973 ] ] ] } },
{ "type": "Feature", "properties": { "PROV": "07", "region_code": "07", "province": "Elias Pina", "province_key": "ELIAS PINA", "businesses": 91.0, "population": 62865.0, "business_density": 1.4475463294360933, "opportunity": 0.0, "label": "Elias Pina: 1.4 empresas por 1,000 hab." }, "geometry": { "type": "Polygon", "coordinates": [ [ [ -71.588183874968479, 19.283158400744544 ], [ -71.502123619892402, 19.274170044427571 ], [ -71.497650894013987, 19.251318797399076 ], [ -71.433144513322219, 19.244041967815502 ], [ -71.317787356471271, 19.172131487711319 ], [ -71.342446753241163, 19.170799989809829 ], [ -71.349799083319581, 19.107918631589182 ], [ -71.467306931987139, 19.125374483222622 ], [ -71.507174750987289, 19.009736005249284 ], [ -71.571913481629807, 19.001098047496267 ], [ -71.643797553470492, 18.945035621525513 ], [ -71.616801674329338, 18.938787772304657 ], [ -71.652686495575566, 18.882768157356839 ], [ -71.61719690773981, 18.884894704146205 ], [ -71.630299113360465, 18.805883216893431 ], [ -71.567039721218492, 18.781469825830126 ], [ -71.575774182861679, 18.654659645689897 ], [ -71.784297228458186, 18.680248519136271 ], [ -71.784356215083349, 18.704510898971467 ], [ -71.739239439450685, 18.723777204654734 ], [ -71.729069444264766, 18.873871915447783 ], [ -71.770848772628383, 18.905791341923415 ], [ -71.782546376360344, 18.95452719539156 ], [ -71.835840154649716, 18.970250266625182 ], [ -71.881896603675798, 18.941452385606777 ], [ -71.886397938223737, 18.95988781523603 ], [ -71.833824637057049, 19.005072293999827 ], [ -71.789128538583398, 18.993158022763211 ], [ -71.701149788200695, 19.073210346670646 ], [ -71.70234149105174, 19.105908742432185 ], [ -71.654152713564287, 19.115918636563581 ], [ -71.621746104340716, 19.206528214466712 ], [ -71.638900619709389, 19.231734072289985 ], [ -71.588183874968479, 19.283158400744544 ] ] ] } },
{ "type": "Feature", "properties": { "PROV": "08", "region_code": "08", "province": "El Seibo", "province_key": "EL SEIBO", "businesses": 298.0, "population": 96165.0, "business_density": 3.0988405344979983, "opportunity": 4.7069154992236202, "label": "El Seibo: 3.1 empresas por 1,000 hab." }, "geometry": { "type": "MultiPolygon", "coordinates": [ [ [ [ -69.14515718335106, 19.043202164498432 ], [ -69.064323743820452, 18.984683932314489 ], [ -68.942410132800134, 19.031476444500186 ], [ -68.776192097691393, 18.968028783676225 ], [ -68.841967748795824, 18.894497756081865 ], [ -68.80958399252215, 18.78778872577422 ], [ -68.8517081509289, 18.772399266641727 ], [ -68.869359240896813, 18.72212744756628 ], [ -68.925982966964781, 18.721891718558666 ], [ -68.92705779239806, 18.657407284372226 ], [ -68.980870736113317, 18.639849702755644 ], [ -69.084008106261862, 18.526432910140791 ], [ -69.067127380277284, 18.592871379671148 ], [ -69.157712535085679, 18.583872971630147 ], [ -69.163926573712047, 18.612390898170659 ], [ -69.218347379661154, 18.636584599012906 ], [ -69.213078676819578, 18.790715104570463 ], [ -69.328394516323058, 18.888350793957304 ], [ -69.322636581897044, 18.935261799340999 ], [ -69.291208224919188, 18.956197526982194 ], [ -69.122135118491798, 18.920442974960217 ], [ -69.186284345507801, 18.980489246128663 ], [ -69.181109744001432, 19.006256219350604 ], [ -69.138197803636558, 19.002187902513608 ], [ -69.14515718335106, 19.043202164498432 ] ] ], [ [ [ -69.172770063633166, 19.015877694946266 ], [ -69.167944729724638, 19.014870221957313 ], [ -69.174621163963252, 19.014358078241749 ], [ -69.172770063633166, 19.015877694946266 ] ] ] ] } },
{ "type": "Feature", "properties": { "PROV": "09", "region_code": "01", "province": "Espaillat", "province_key": "ESPAILLAT", "businesses": 2337.0, "population": 242644.0, "business_density": 9.6313941412109916, "opportunity": 23.327569363744292, "label": "Espaillat: 9.6 empresas por 1,000 hab." }, "geometry": { "type": "Polygon", "coordinates": [ [ [ -70.37586175959602, 19.713771328247372 ], [ -70.267024103659693, 19.640875346783627 ], [ -70.156277801474673, 19.62011751183222 ], [ -70.083115441854076, 19.63536862748564 ], [ -70.086636678046247, 19.586714070783898 ], [ -70.156872347211291, 19.550674573864189 ], [ -70.197719860590851, 19.557575762063113 ], [ -70.208560875351708, 19.51472679367247 ], [ -70.284692245143191, 19.531196265941674 ], [ -70.312274487736389, 19.562171581926648 ], [ -70.345587186633153, 19.51895426125364 ], [ -70.419748356251773, 19.553883636577005 ], [ -70.454049561129168, 19.34831869617733 ], [ -70.476307172234641, 19.307808257016102 ], [ -70.500540419473381, 19.311527244967269 ], [ -70.487327147117483, 19.344910820486664 ], [ -70.604935446713824, 19.362740053436379 ], [ -70.605828430457436, 19.387459465341486 ], [ -70.59501858645298, 19.390985480802801 ], [ -70.586744041155839, 19.384374551134314 ], [ -70.578824467570541, 19.387776653209908 ], [ -70.58265899576827, 19.484040543655386 ], [ -70.535971660651413, 19.512402991841835 ], [ -70.533612527199423, 19.569022655544455 ], [ -70.515580357367497, 19.579683703799738 ], [ -70.496541905568947, 19.549722774570707 ], [ -70.500298833253311, 19.660992766568715 ], [ -70.395683151185523, 19.653887657995316 ], [ -70.367391916722042, 19.677125918277824 ], [ -70.37586175959602, 19.713771328247372 ] ] ] } },
{ "type": "Feature", "properties": { "PROV": "10", "region_code": "06", "province": "Independencia", "province_key": "INDEPENDENCIA", "businesses": 94.0, "population": 61024.0, "business_density": 1.5403775563712638, "opportunity": 0.26460986754127125, "label": "Independencia: 1.5 empresas por 1,000 hab." }, "geometry": { "type": "Polygon", "coordinates": [ [ [ -71.797506712930783, 18.688326243952098 ], [ -71.573903019937745, 18.653382620013851 ], [ -71.608783629446421, 18.6318006485299 ], [ -71.593239589967766, 18.6036874625146 ], [ -71.631308208340286, 18.529269714388938 ], [ -71.70316125695156, 18.566248454303974 ], [ -71.754183520191887, 18.5086208326099 ], [ -71.824601930956248, 18.537418041237281 ], [ -71.802638976281401, 18.497417538268259 ], [ -71.618146721039125, 18.409383908986928 ], [ -71.501863278328145, 18.458874719785669 ], [ -71.414126700385324, 18.375391709605815 ], [ -71.297716895328577, 18.419246070183206 ], [ -71.211362655014113, 18.325502083251536 ], [ -71.24813241118045, 18.274526117666493 ], [ -71.366274520989023, 18.306922204258534 ], [ -71.393082100966083, 18.276272023067111 ], [ -71.373077281373526, 18.26203791857882 ], [ -71.383498989134665, 18.188644286027191 ], [ -71.42493026739767, 18.196749125659238 ], [ -71.425466399825282, 18.137867944559975 ], [ -71.502917657247366, 18.201597812899116 ], [ -71.624077740160487, 18.22649276522451 ], [ -71.725314410813667, 18.290459616252978 ], [ -71.696020156196681, 18.340636673297404 ], [ -71.903955821514089, 18.456036815898035 ], [ -71.913586869578992, 18.483983195111612 ], [ -71.881148521645798, 18.502843693915988 ], [ -72.011472398157039, 18.621471096507339 ], [ -71.965716472192383, 18.656474539931878 ], [ -71.815728838291122, 18.630129027050451 ], [ -71.797506712930783, 18.688326243952098 ] ] ] } },
{ "type": "Feature", "properties": { "PROV": "11", "region_code": "08", "province": "La Altagracia", "province_key": "LA ALTAGRACIA", "businesses": 5440.0, "population": 390568.0, "business_density": 13.928432436861186, "opportunity": 35.576020362090226, "label": "La Altagracia: 13.9 empresas por 1,000 hab." }, "geometry": { "type": "MultiPolygon", "coordinates": [ [ [ [ -68.637169985917325, 18.197757249520599 ], [ -68.636758814972964, 18.193465047320874 ], [ -68.640505230961494, 18.193067063890304 ], [ -68.637169985917325, 18.197757249520599 ] ] ], [ [ [ -68.775700866913169, 18.974140010523016 ], [ -68.325132478761674, 18.616837207612345 ], [ -68.375682531132668, 18.500950671834868 ], [ -68.444555724802015, 18.425130700513197 ], [ -68.464504706789697, 18.34471653396453 ], [ -68.593803851732318, 18.380405374371936 ], [ -68.618006194873416, 18.367412301533065 ], [ -68.602118998165139, 18.331873940424597 ], [ -68.642895129663046, 18.209756092103039 ], [ -68.737827692949892, 18.203704300866764 ], [ -68.74394547229501, 18.223354096249153 ], [ -68.754725053577147, 18.202325220687271 ], [ -68.813314006415908, 18.335216612848122 ], [ -68.897134175837905, 18.398425849789895 ], [ -68.842415132732341, 18.518823688203117 ], [ -68.851440672324955, 18.563789787800939 ], [ -68.905822628537365, 18.609284744432838 ], [ -68.93267847915952, 18.704669678651388 ], [ -68.869359240896813, 18.72212744756628 ], [ -68.8517081509289, 18.772399266641727 ], [ -68.80958399252215, 18.78778872577422 ], [ -68.841967748795824, 18.894497756081865 ], [ -68.775700866913169, 18.974140010523016 ] ] ] ] } },
{ "type": "Feature", "properties": { "PROV": "12", "region_code": "08", "province": "La Romana", "province_key": "LA ROMANA", "businesses": 2441.0, "population": 283942.0, "business_density": 8.5968261123750622, "opportunity": 20.378594992610648, "label": "La Romana: 8.6 empresas por 1,000 hab." }, "geometry": { "type": "MultiPolygon", "coordinates": [ [ [ [ -68.652413756235262, 18.096191799376719 ], [ -68.659727383059462, 18.096904391472705 ], [ -68.664481142360756, 18.097437383696953 ], [ -68.652413756235262, 18.096191799376719 ] ] ], [ [ [ -68.784160367669983, 18.188442849458404 ], [ -68.649575739657962, 18.159316089779018 ], [ -68.606563515111318, 18.163204111191476 ], [ -68.570110264403681, 18.1150388989908 ], [ -68.757111569088067, 18.137013558812622 ], [ -68.784160367669983, 18.188442849458404 ] ] ], [ [ [ -68.646212942653023, 18.159896115697013 ], [ -68.648759670383413, 18.163410176105948 ], [ -68.645039292152063, 18.161470635861075 ], [ -68.646212942653023, 18.159896115697013 ] ] ], [ [ [ -69.01755279160794, 18.37628914622006 ], [ -68.994386044730973, 18.339077856275534 ], [ -69.025163260388524, 18.351488259047024 ], [ -69.01755279160794, 18.37628914622006 ] ] ], [ [ [ -68.951023880148938, 18.658025529622613 ], [ -68.912391138509591, 18.648891589661595 ], [ -68.905315591270423, 18.608261447488477 ], [ -68.846816338198565, 18.554117222949991 ], [ -68.88686530455108, 18.414700715069081 ], [ -69.084314250160645, 18.39298540506066 ], [ -69.118391650229526, 18.482434059898694 ], [ -68.951023880148938, 18.658025529622613 ] ] ] ] } },
{ "type": "Feature", "properties": { "PROV": "13", "region_code": "02", "province": "La Vega", "province_key": "LA VEGA", "businesses": 4692.0, "population": 416974.0, "business_density": 11.252500155885018, "opportunity": 27.948435229417061, "label": "La Vega: 11.3 empresas por 1,000 hab." }, "geometry": { "type": "Polygon", "coordinates": [ [ [ -70.608455725857425, 19.374207621125073 ], [ -70.486972192353505, 19.34471814554573 ], [ -70.499420601772727, 19.311216797906329 ], [ -70.476383681039223, 19.307750814944288 ], [ -70.472839554005432, 19.339947990216228 ], [ -70.444290678985467, 19.34101009824332 ], [ -70.408353147041197, 19.229865565412396 ], [ -70.360390569489482, 19.231721327938228 ], [ -70.271166410983327, 19.1505661244463 ], [ -70.321234107049975, 19.153172703246511 ], [ -70.361424542017133, 19.049621409829975 ], [ -70.434083293612943, 19.131431957372023 ], [ -70.484693073600099, 19.091576512067231 ], [ -70.507137359378433, 19.112701313756045 ], [ -70.539750604164936, 19.102395730212962 ], [ -70.515783197468352, 19.00173996193698 ], [ -70.584556908268823, 18.905985541482302 ], [ -70.529941660742082, 18.76023614596124 ], [ -70.599301695674882, 18.710517764879167 ], [ -70.592110598571423, 18.686442179896044 ], [ -70.695328030179041, 18.685095547903714 ], [ -70.683981629248052, 18.757256200886196 ], [ -70.755413148676837, 18.772419853948744 ], [ -70.8369438240493, 18.880252626760331 ], [ -70.83772099763668, 18.989236434282358 ], [ -70.891087314329866, 18.991336458767947 ], [ -70.96020700737435, 19.04470047926986 ], [ -70.948013970846532, 19.094744073989819 ], [ -70.847801114472503, 19.095878466475515 ], [ -70.808057345632363, 19.140005303122905 ], [ -70.73218809504273, 19.165038676902469 ], [ -70.729614625764754, 19.208634269847792 ], [ -70.683402769638576, 19.181574520978842 ], [ -70.679526681805882, 19.264981795942958 ], [ -70.719283012256199, 19.296749610712496 ], [ -70.673865283797127, 19.284883540540552 ], [ -70.664963205920245, 19.337407933092187 ], [ -70.608455725857425, 19.374207621125073 ] ] ] } },
{ "type": "Feature", "properties": { "PROV": "14", "region_code": "03", "province": "Maria Trinidad Sanchez", "province_key": "MARIA TRINIDAD SANCHEZ", "businesses": 1289.0, "population": 140304.0, "business_density": 9.1871935226365604, "opportunity": 22.061402032735987, "label": "Maria Trinidad Sanchez: 9.2 empresas por 1,000 hab." }, "geometry": { "type": "Polygon", "coordinates": [ [ [ -70.063308005561595, 19.668880928085578 ], [ -69.946080179566877, 19.674902872160573 ], [ -69.88621373546836, 19.617978358250259 ], [ -69.903851239964183, 19.545932913289374 ], [ -69.868518256811527, 19.508539877475172 ], [ -69.867604349859022, 19.430840161206781 ], [ -69.84174771244443, 19.370891592622073 ], [ -69.743825488272904, 19.279863788598281 ], [ -69.771654496783626, 19.280245968571613 ], [ -69.745784222720857, 19.262429407029572 ], [ -69.779199325461789, 19.202070997075563 ], [ -70.017199830967954, 19.274554717204797 ], [ -70.015737892257491, 19.321192285609882 ], [ -70.103632872780693, 19.352628533007596 ], [ -70.080220741411026, 19.432623196355792 ], [ -70.12540218943515, 19.428837687605913 ], [ -70.138172128677738, 19.508115206990837 ], [ -70.196696687553199, 19.517116547415846 ], [ -70.197719860590851, 19.557575762063113 ], [ -70.156872347211291, 19.550674573864189 ], [ -70.087138093217149, 19.585991311400822 ], [ -70.063308005561595, 19.668880928085578 ] ] ] } },
{ "type": "Feature", "properties": { "PROV": "15", "region_code": "04", "province": "Monte Cristi", "province_key": "MONTE CRISTI", "businesses": 782.0, "population": 119725.0, "business_density": 6.5316349968678225, "opportunity": 14.491891072351004, "label": "Monte Cristi: 6.5 empresas por 1,000 hab." }, "geometry": { "type": "MultiPolygon", "coordinates": [ [ [ [ -71.755801858834445, 19.81921033161947 ], [ -71.759946616915911, 19.821001673207242 ], [ -71.755126052376269, 19.82217091997062 ], [ -71.755801858834445, 19.81921033161947 ] ] ], [ [ [ -71.796480131445321, 19.830289658314008 ], [ -71.791500270089841, 19.824871546935793 ], [ -71.799885952591936, 19.827538954168315 ], [ -71.796480131445321, 19.830289658314008 ] ] ], [ [ [ -71.824776480247209, 19.856059744167027 ], [ -71.8098797151453, 19.844905983097906 ], [ -71.836554247157352, 19.863368304358787 ], [ -71.824776480247209, 19.856059744167027 ] ] ], [ [ [ -71.810524842114106, 19.863386011829846 ], [ -71.814634880265928, 19.860337218259605 ], [ -71.813300408266898, 19.863960631698717 ], [ -71.810524842114106, 19.863386011829846 ] ] ], [ [ [ -71.769273350485037, 19.864174460817711 ], [ -71.764584921390167, 19.862583770750788 ], [ -71.765147606910787, 19.861265876448222 ], [ -71.769273350485037, 19.864174460817711 ] ] ], [ [ [ -71.673925002177825, 19.8662095097663 ], [ -71.67509570762472, 19.870356645207249 ], [ -71.673435070603361, 19.870214547555552 ], [ -71.673925002177825, 19.8662095097663 ] ] ], [ [ [ -71.835880142124694, 19.873673508075726 ], [ -71.839701719761479, 19.861097196669746 ], [ -71.840893783242052, 19.876755697483652 ], [ -71.835880142124694, 19.873673508075726 ] ] ], [ [ [ -71.821527272534468, 19.876747772659041 ], [ -71.815440575382411, 19.875738182978811 ], [ -71.815596463942697, 19.872510330965532 ], [ -71.821527272534468, 19.876747772659041 ] ] ], [ [ [ -71.787963405531343, 19.884429537827994 ], [ -71.783215800706571, 19.883898950167829 ], [ -71.786630525533354, 19.881276886040411 ], [ -71.787963405531343, 19.884429537827994 ] ] ], [ [ [ -71.666942805938319, 19.884867042890171 ], [ -71.669590563625633, 19.890637638609203 ], [ -71.665418162555525, 19.889490284635389 ], [ -71.666942805938319, 19.884867042890171 ] ] ], [ [ [ -71.81217703269968, 19.889889857333888 ], [ -71.812013233893964, 19.898706401383464 ], [ -71.807614765139249, 19.893839622961035 ], [ -71.81217703269968, 19.889889857333888 ] ] ], [ [ [ -71.622363266696468, 19.904909121255574 ], [ -71.619600861738675, 19.903888879192301 ], [ -71.623994528117322, 19.903808290875126 ], [ -71.622363266696468, 19.904909121255574 ] ] ], [ [ [ -71.627903271390267, 19.906581291441402 ], [ -71.62568547538848, 19.903568878696447 ], [ -71.631940131996188, 19.905361295004226 ], [ -71.627903271390267, 19.906581291441402 ] ] ], [ [ [ -71.609762439030746, 19.906728874570522 ], [ -71.607636710619929, 19.908139329699381 ], [ -71.608995041122057, 19.906613724350173 ], [ -71.609762439030746, 19.906728874570522 ] ] ], [ [ [ -71.58925223351018, 19.909500636701555 ], [ -71.58905583899444, 19.910695410654558 ], [ -71.588666715928071, 19.910222506495334 ], [ -71.58925223351018, 19.909500636701555 ] ] ], [ [ [ -71.610951962239881, 19.909560225052413 ], [ -71.613077727550277, 19.909632828721669 ], [ -71.611544194122473, 19.910707304354972 ], [ -71.610951962239881, 19.909560225052413 ] ] ], [ [ [ -71.548932392753329, 19.916027256969365 ], [ -71.550859438599886, 19.915290764670427 ], [ -71.549313740027586, 19.916355891924795 ], [ -71.548932392753329, 19.916027256969365 ] ] ], [ [ [ -71.585945876376925, 19.917587420539935 ], [ -71.56145614925147, 19.917926303790011 ], [ -71.590327334107684, 19.91255279309053 ], [ -71.585945876376925, 19.917587420539935 ] ] ], [ [ [ -71.549259089768057, 19.919729327980306 ], [ -71.552438240996366, 19.918044773877227 ], [ -71.552386598010941, 19.919659599679051 ], [ -71.549259089768057, 19.919729327980306 ] ] ], [ [ [ -71.553532087161315, 19.917667865766489 ], [ -71.553304659044827, 19.919427436720365 ], [ -71.552842746875598, 19.917743236114426 ], [ -71.553532087161315, 19.917667865766489 ] ] ], [ [ [ -71.528962395890431, 19.909000531233236 ], [ -71.373924669165959, 19.856215363676306 ], [ -71.291668163715002, 19.846093553618399 ], [ -71.229346818385892, 19.786198917407535 ], [ -71.130707756106943, 19.762434761949486 ], [ -71.166214160513434, 19.707195797687422 ], [ -71.165224520461933, 19.629112479953875 ], [ -71.189313189825057, 19.617935929684336 ], [ -71.170606071081068, 19.577237742366933 ], [ -71.189526156699557, 19.530114915003004 ], [ -71.217538497989011, 19.547834755859817 ], [ -71.239597607505289, 19.524165680048338 ], [ -71.333537284203629, 19.569873473545922 ], [ -71.336842905591652, 19.548266773598694 ], [ -71.417021056063177, 19.556674965861699 ], [ -71.421895229986063, 19.533667904149272 ], [ -71.502084879890774, 19.569901866954172 ], [ -71.52032781835544, 19.622889054228612 ], [ -71.59563262015017, 19.615696562599663 ], [ -71.604254642276004, 19.645022736407558 ], [ -71.654957163254636, 19.603258984588489 ], [ -71.735470000711828, 19.633901311280873 ], [ -71.760167667400438, 19.698846670970116 ], [ -71.732626194896895, 19.707823633185445 ], [ -71.735809676257375, 19.701177968628741 ], [ -71.725926454600526, 19.695540550199766 ], [ -71.71608557411669, 19.691673196150031 ], [ -71.709644972445048, 19.694921204520476 ], [ -71.732955977710489, 19.702098243311298 ], [ -71.726752256477411, 19.728928994851934 ], [ -71.753480805725559, 19.768759355457327 ], [ -71.746657987325506, 19.795822186202464 ], [ -71.773410266302747, 19.758275428045515 ], [ -71.778576739618643, 19.779309358646881 ], [ -71.659630962593525, 19.857066967072328 ], [ -71.654630454753814, 19.898956272180797 ], [ -71.629521577570401, 19.881162074999889 ], [ -71.528962395890431, 19.909000531233236 ] ] ], [ [ [ -71.276006325758331, 19.839231708149132 ], [ -71.2743214287662, 19.837679495520508 ], [ -71.275145942320862, 19.83719709095627 ], [ -71.276006325758331, 19.839231708149132 ] ] ], [ [ [ -71.272853974378492, 19.845564502896334 ], [ -71.272004798181086, 19.844317713038606 ], [ -71.272839412805837, 19.844541889483931 ], [ -71.272853974378492, 19.845564502896334 ] ] ], [ [ [ -71.28358295636599, 19.84582025148347 ], [ -71.286714752261929, 19.843892570264607 ], [ -71.286986748475897, 19.84546278008338 ], [ -71.28358295636599, 19.84582025148347 ] ] ], [ [ [ -71.265503508263393, 19.849040315163339 ], [ -71.263904032514759, 19.847644968892322 ], [ -71.264980335207284, 19.847317455927509 ], [ -71.265503508263393, 19.849040315163339 ] ] ], [ [ [ -71.308240698551032, 19.869317838408197 ], [ -71.304377279071957, 19.86954397860395 ], [ -71.307791393602884, 19.868438608902281 ], [ -71.308240698551032, 19.869317838408197 ] ] ], [ [ [ -71.304324461397925, 19.87866161813384 ], [ -71.296501543556943, 19.871239720151141 ], [ -71.314045634656225, 19.87541978692088 ], [ -71.304324461397925, 19.87866161813384 ] ] ], [ [ [ -71.327633351282429, 19.876556684232391 ], [ -71.332588055759516, 19.877121750317432 ], [ -71.327121755380333, 19.877559044900345 ], [ -71.327633351282429, 19.876556684232391 ] ] ], [ [ [ -71.321070843580458, 19.881221116713427 ], [ -71.317759057135859, 19.87784600358157 ], [ -71.325677195949368, 19.879535402360784 ], [ -71.321070843580458, 19.881221116713427 ] ] ], [ [ [ -71.32941804108782, 19.87865789258683 ], [ -71.330338629225707, 19.881632856050878 ], [ -71.327722221742206, 19.880240187045423 ], [ -71.32941804108782, 19.87865789258683 ] ] ], [ [ [ -71.323951465010722, 19.881483813375134 ], [ -71.327471595102566, 19.882300283551704 ], [ -71.323695947750068, 19.883212081265331 ], [ -71.323951465010722, 19.881483813375134 ] ] ], [ [ [ -71.415822317344123, 19.881549747677926 ], [ -71.428174635651487, 19.882718180494063 ], [ -71.427753563226489, 19.886749283127191 ], [ -71.415822317344123, 19.881549747677926 ] ] ], [ [ [ -71.328428182732921, 19.885340261419195 ], [ -71.328014245535002, 19.883422066299904 ], [ -71.329653982953559, 19.885193269665361 ], [ -71.328428182732921, 19.885340261419195 ] ] ], [ [ [ -71.346602948159344, 19.884799008866725 ], [ -71.34259371241815, 19.885623974132219 ], [ -71.341958911765573, 19.884866954810686 ], [ -71.346602948159344, 19.884799008866725 ] ] ], [ [ [ -71.358482641217535, 19.897215212880774 ], [ -71.340919725816335, 19.890543043373928 ], [ -71.36276028318585, 19.895447097607377 ], [ -71.358482641217535, 19.897215212880774 ] ] ], [ [ [ -71.456844543880422, 19.907228228229847 ], [ -71.430541317650309, 19.901798947399968 ], [ -71.424229535216838, 19.888359610853762 ], [ -71.456844543880422, 19.907228228229847 ] ] ], [ [ [ -71.548938891590666, 19.915009046796371 ], [ -71.547344268851191, 19.915758814085908 ], [ -71.547130571212946, 19.915335215500438 ], [ -71.548938891590666, 19.915009046796371 ] ] ], [ [ [ -71.531597709932043, 19.916460147056018 ], [ -71.536986275209415, 19.921435547764563 ], [ -71.529565302876435, 19.918008378772122 ], [ -71.531597709932043, 19.916460147056018 ] ] ], [ [ [ -71.519378980453823, 19.920839514278253 ], [ -71.518667974034059, 19.917865171699603 ], [ -71.523033683235695, 19.919503140323446 ], [ -71.519378980453823, 19.920839514278253 ] ] ] ] } },
{ "type": "Feature", "properties": { "PROV": "16", "region_code": "06", "province": "Pedernales", "province_key": "PEDERNALES", "businesses": 87.0, "population": 36385.0, "business_density": 2.3910952315514638, "opportunity": 2.6895297870168284, "label": "Pedernales: 2.4 empresas por 1,000 hab." }, "geometry": { "type": "MultiPolygon", "coordinates": [ [ [ [ -71.647948451507332, 17.477581493024832 ], [ -71.634846394466663, 17.472422042999618 ], [ -71.643175037359711, 17.470332694746908 ], [ -71.647948451507332, 17.477581493024832 ] ] ], [ [ [ -71.64624801345164, 17.484631058182668 ], [ -71.647026444169313, 17.486907105656393 ], [ -71.645358140399892, 17.486973226755708 ], [ -71.64624801345164, 17.484631058182668 ] ] ], [ [ [ -71.511807370030908, 17.612650046032794 ], [ -71.4692151102266, 17.580140072112844 ], [ -71.548886900294988, 17.540977043546846 ], [ -71.538605530849608, 17.595723031839213 ], [ -71.511807370030908, 17.612650046032794 ] ] ], [ [ [ -71.709396193333262, 17.632372887012089 ], [ -71.709333097945319, 17.630811114249116 ], [ -71.710940372366323, 17.631970525251916 ], [ -71.709396193333262, 17.632372887012089 ] ] ], [ [ [ -71.278856773549236, 17.838777010821566 ], [ -71.284208945103941, 17.841011066784809 ], [ -71.279319340670057, 17.841205986967228 ], [ -71.278856773549236, 17.838777010821566 ] ] ], [ [ [ -71.725314410813667, 18.290459616252978 ], [ -71.624077740160487, 18.22649276522451 ], [ -71.502917657247366, 18.201597812899116 ], [ -71.386011341483851, 18.122021020038115 ], [ -71.40554471287011, 18.099826648150589 ], [ -71.385116487198118, 18.044083107501173 ], [ -71.430109033947105, 18.018146933700628 ], [ -71.437895980727404, 17.980114670180466 ], [ -71.381624532134879, 17.928651715222159 ], [ -71.298135268390254, 17.912191098075819 ], [ -71.310569995047288, 17.898382638838072 ], [ -71.272286240960455, 17.851907388438025 ], [ -71.284622921350987, 17.851840065147137 ], [ -71.326028937544606, 17.795713720180814 ], [ -71.421563223404576, 17.596654989933203 ], [ -71.53444293495248, 17.752207563610323 ], [ -71.662258445641754, 17.750172070538628 ], [ -71.698799610508871, 17.771100317521121 ], [ -71.634346357812504, 17.833171707571065 ], [ -71.678902943676832, 17.896799496562124 ], [ -71.672576155428644, 17.962162534473624 ], [ -71.759119630804548, 18.031146726171734 ], [ -71.73508870109427, 18.095225375915447 ], [ -71.746609590062008, 18.147051706085151 ], [ -71.78819516333327, 18.180694805859869 ], [ -71.725314410813667, 18.290459616252978 ] ] ] ] } },
{ "type": "Feature", "properties": { "PROV": "17", "region_code": "05", "province": "Peravia", "province_key": "PERAVIA", "businesses": 1152.0, "population": 202667.0, "business_density": 5.6842011773006949, "opportunity": 12.076331587154815, "label": "Peravia: 5.7 empresas por 1,000 hab." }, "geometry": { "type": "Polygon", "coordinates": [ [ [ -70.329162664919409, 18.502178250547278 ], [ -70.244680694937188, 18.422882635545992 ], [ -70.288760957126698, 18.38621061125372 ], [ -70.186904819648007, 18.279615185052169 ], [ -70.187860823798829, 18.228651510341482 ], [ -70.392033172804744, 18.237308694060758 ], [ -70.501345569219808, 18.192855415769579 ], [ -70.563902949423323, 18.204063986989599 ], [ -70.5476454752, 18.228816027570382 ], [ -70.511857171660438, 18.221384440896752 ], [ -70.587985565508049, 18.272698282561315 ], [ -70.498245034368239, 18.291974387520305 ], [ -70.469217390375746, 18.451011111768448 ], [ -70.329162664919409, 18.502178250547278 ] ] ] } },
{ "type": "Feature", "properties": { "PROV": "18", "region_code": "01", "province": "Puerto Plata", "province_key": "PUERTO PLATA", "businesses": 4377.0, "population": 336645.0, "business_density": 13.001826850242837, "opportunity": 32.934786483868272, "label": "Puerto Plata: 13.0 empresas por 1,000 hab." }, "geometry": { "type": "MultiPolygon", "coordinates": [ [ [ [ -70.993479548846636, 19.930740330694547 ], [ -70.933949201417988, 19.889955862595432 ], [ -70.932958850904697, 19.915732713094272 ], [ -70.838080272310989, 19.905163006348822 ], [ -70.781211533115226, 19.828880582428724 ], [ -70.742921092372839, 19.837080232661513 ], [ -70.704993775828953, 19.799684614623569 ], [ -70.63202013291567, 19.763934368891977 ], [ -70.527379644503938, 19.752975685410945 ], [ -70.503131204386094, 19.782260728174361 ], [ -70.442141216918046, 19.779856148516174 ], [ -70.391420672040255, 19.742819342429161 ], [ -70.367922682675982, 19.675857435839379 ], [ -70.395683151185523, 19.653887657995316 ], [ -70.500298833253311, 19.660992766568715 ], [ -70.489079134361305, 19.569063670741695 ], [ -70.499209417722696, 19.548154224937203 ], [ -70.515580357367497, 19.579683703799738 ], [ -70.534055533847265, 19.568623628638811 ], [ -70.537025614778557, 19.512204310744643 ], [ -70.626781374520789, 19.550673085466244 ], [ -70.63092773762861, 19.608310652019703 ], [ -70.688364290241879, 19.646560406439054 ], [ -70.74855152082138, 19.580451278953312 ], [ -70.801751977064313, 19.631112857419772 ], [ -70.911499158528727, 19.652740437311433 ], [ -70.984442557193603, 19.705870644721731 ], [ -71.242914581595542, 19.799060119832497 ], [ -71.256562557656096, 19.830149361813564 ], [ -71.215293383828453, 19.838808645625271 ], [ -71.212398676946094, 19.870259577490266 ], [ -71.182146432694267, 19.834597589683 ], [ -71.119790127207068, 19.849340249955173 ], [ -71.178290840791973, 19.856634861430752 ], [ -71.099644388880819, 19.868771970197109 ], [ -71.061876977289771, 19.917860991743009 ], [ -70.993479548846636, 19.930740330694547 ] ], [ [ -71.120356098474005, 19.860682281407925 ], [ -71.122078803188927, 19.856010274489371 ], [ -71.117362936576555, 19.859821446146253 ], [ -71.120356098474005, 19.860682281407925 ] ] ], [ [ [ -70.739415580991093, 19.835532901729234 ], [ -70.741288358456785, 19.836151500827384 ], [ -70.740101708669698, 19.836845119312621 ], [ -70.739415580991093, 19.835532901729234 ] ] ] ] } },
{ "type": "Feature", "properties": { "PROV": "19", "region_code": "03", "province": "Hermanas Mirabal", "province_key": "HERMANAS MIRABAL", "businesses": 860.0, "population": 91586.0, "business_density": 9.3900814534972579, "opportunity": 22.639721961096559, "label": "Hermanas Mirabal: 9.4 empresas por 1,000 hab." }, "geometry": { "type": "Polygon", "coordinates": [ [ [ -70.303649864128843, 19.558376522219511 ], [ -70.247602853637687, 19.515024919692269 ], [ -70.257870709777691, 19.48680306107585 ], [ -70.2956291465932, 19.481184676436701 ], [ -70.258363600140328, 19.448710329916885 ], [ -70.353321206973931, 19.34090986252145 ], [ -70.35968573316967, 19.232693458179547 ], [ -70.408353147041197, 19.229865565412396 ], [ -70.457539402780966, 19.345613490466715 ], [ -70.423337872584824, 19.447804699331396 ], [ -70.442688929282752, 19.506126669564694 ], [ -70.413335634501067, 19.557490162776574 ], [ -70.34625253373612, 19.518916089963721 ], [ -70.336537006390714, 19.551963410202617 ], [ -70.303649864128843, 19.558376522219511 ] ] ] } },
{ "type": "Feature", "properties": { "PROV": "20", "region_code": "03", "province": "Samana", "province_key": "SAMANA", "businesses": 949.0, "population": 116490.0, "business_density": 8.1466220276418593, "opportunity": 19.095315139905626, "label": "Samana: 8.1 empresas por 1,000 hab." }, "geometry": { "type": "MultiPolygon", "coordinates": [ [ [ [ -69.605904296277203, 19.080610108331232 ], [ -69.605962086273252, 19.079102963997386 ], [ -69.609350075243796, 19.08120198372173 ], [ -69.605904296277203, 19.080610108331232 ] ] ], [ [ [ -69.622403888104259, 19.08748157458519 ], [ -69.62287257996347, 19.086743199866472 ], [ -69.62274686053938, 19.087664613488968 ], [ -69.622403888104259, 19.08748157458519 ] ] ], [ [ [ -69.624104687689623, 19.089078531207448 ], [ -69.625639370976245, 19.08805819413503 ], [ -69.626249888275993, 19.088590975513121 ], [ -69.624104687689623, 19.089078531207448 ] ] ], [ [ [ -69.626610993872745, 19.089685668530343 ], [ -69.627125633788197, 19.091443320796955 ], [ -69.626435658720979, 19.09130767483818 ], [ -69.626610993872745, 19.089685668530343 ] ] ], [ [ [ -69.631902356499069, 19.093974602604455 ], [ -69.632223232990384, 19.094979106097977 ], [ -69.631503767801306, 19.094996128087779 ], [ -69.631902356499069, 19.093974602604455 ] ] ], [ [ [ -69.230587208709977, 19.36278944471319 ], [ -69.215208202763165, 19.352704587904839 ], [ -69.251425754058388, 19.291645122075089 ], [ -69.149106113385074, 19.299114129426385 ], [ -69.220453731842682, 19.182868053265942 ], [ -69.33327145081708, 19.202545305006961 ], [ -69.40720674410143, 19.184304192983312 ], [ -69.622825124608269, 19.224352287755341 ], [ -69.639206506524729, 19.098732386613442 ], [ -69.620315490892608, 19.077229716260113 ], [ -69.617028155855479, 19.081470151888315 ], [ -69.615601101498726, 19.079525151193419 ], [ -69.614391809975956, 19.081689071536417 ], [ -69.613213060621433, 19.079650590891926 ], [ -69.612265193153078, 19.081587698251244 ], [ -69.606935888544243, 19.078887384445526 ], [ -69.604088607153358, 19.079418639618211 ], [ -69.624300218844496, 18.992196295100687 ], [ -69.733121165019256, 19.093732967753464 ], [ -69.748382842509372, 19.15037462488284 ], [ -69.721863663788227, 19.13960311702877 ], [ -69.649672115400762, 19.201409301286628 ], [ -69.750157644415324, 19.223491020248627 ], [ -69.769913340375197, 19.282038322380206 ], [ -69.50741012114969, 19.327492212470304 ], [ -69.412662318846074, 19.322754008417583 ], [ -69.328885408093612, 19.283593773602387 ], [ -69.230587208709977, 19.36278944471319 ] ] ], [ [ [ -69.296631910467951, 19.190217793254433 ], [ -69.295947534572647, 19.191045977340863 ], [ -69.295418432587937, 19.190194687864139 ], [ -69.296631910467951, 19.190217793254433 ] ] ], [ [ [ -69.321631611220226, 19.192089311240121 ], [ -69.320998607679257, 19.192140546758651 ], [ -69.321130114395601, 19.19193981225207 ], [ -69.321631611220226, 19.192089311240121 ] ] ], [ [ [ -69.286153411513581, 19.161866662663577 ], [ -69.285028559373842, 19.162135751635251 ], [ -69.285801233358967, 19.16156645403553 ], [ -69.286153411513581, 19.161866662663577 ] ] ], [ [ [ -69.276168111207141, 19.162990293293078 ], [ -69.275559672499625, 19.163659556758958 ], [ -69.275137306417662, 19.163437406111552 ], [ -69.276168111207141, 19.162990293293078 ] ] ], [ [ [ -69.281098399931238, 19.167121009355672 ], [ -69.272173250832026, 19.166530867482098 ], [ -69.271902085736784, 19.165196492137241 ], [ -69.281098399931238, 19.167121009355672 ] ] ], [ [ [ -69.271109266300144, 19.166116794779036 ], [ -69.270735316259234, 19.166830252471851 ], [ -69.269984142118361, 19.16625212235995 ], [ -69.271109266300144, 19.166116794779036 ] ] ], [ [ [ -69.270549648593118, 19.167988998768834 ], [ -69.269849129811988, 19.169727737858814 ], [ -69.269004599447655, 19.169417080461219 ], [ -69.270549648593118, 19.167988998768834 ] ] ], [ [ [ -69.22682178454501, 19.178006405320822 ], [ -69.226664104320307, 19.17843267364545 ], [ -69.226452845782163, 19.178257492084207 ], [ -69.22682178454501, 19.178006405320822 ] ] ], [ [ [ -69.221787732942701, 19.180995071146249 ], [ -69.221128324703471, 19.181020930385309 ], [ -69.221312399670438, 19.180594634961867 ], [ -69.221787732942701, 19.180995071146249 ] ] ], [ [ [ -69.276149964765935, 19.183086862293703 ], [ -69.275527818499825, 19.183708108112761 ], [ -69.275482320715497, 19.183116061589107 ], [ -69.276149964765935, 19.183086862293703 ] ] ] ] } },
{ "type": "Feature", "properties": { "PROV": "21", "region_code": "05", "province": "San Cristobal", "province_key": "SAN CRISTOBAL", "businesses": 3121.0, "population": 667934.0, "business_density": 4.672617354409268, "opportunity": 9.1928723222123576, "label": "San Cristobal: 4.7 empresas por 1,000 hab." }, "geometry": { "type": "Polygon", "coordinates": [ [ [ -70.240486642516913, 18.801480991042286 ], [ -70.163930343796892, 18.735000673357259 ], [ -70.155357003454967, 18.660528886515301 ], [ -70.12582509339984, 18.630746980470104 ], [ -70.150296823523121, 18.628276548770192 ], [ -70.152872920310386, 18.594581134922056 ], [ -70.124760835140037, 18.526315533095101 ], [ -70.092152569414054, 18.534955584145038 ], [ -70.065915819349897, 18.464618588980077 ], [ -70.013958650072951, 18.476625763655104 ], [ -70.002069378887384, 18.448276655039439 ], [ -70.160711319986731, 18.227264638686481 ], [ -70.187860823798829, 18.228651510341482 ], [ -70.186904819648007, 18.279615185052169 ], [ -70.287896869460198, 18.383577713494951 ], [ -70.243409041181465, 18.419216930047408 ], [ -70.262340614286515, 18.454247246093406 ], [ -70.346623015219421, 18.502338602109376 ], [ -70.381923542871505, 18.553120998180667 ], [ -70.358898229172624, 18.708057801912656 ], [ -70.299302087491512, 18.737901850420066 ], [ -70.289026275305062, 18.790280026523703 ], [ -70.240486642516913, 18.801480991042286 ] ] ] } },
{ "type": "Feature", "properties": { "PROV": "22", "region_code": "07", "province": "San Juan", "province_key": "SAN JUAN", "businesses": 831.0, "population": 214257.0, "business_density": 3.8785197216427001, "opportunity": 6.9293444517044955, "label": "San Juan: 3.9 empresas por 1,000 hab." }, "geometry": { "type": "Polygon", "coordinates": [ [ [ -71.206211299485076, 19.178711020138476 ], [ -71.131649245111589, 19.116323674643791 ], [ -71.131713147975333, 19.077968074180799 ], [ -71.046680403621465, 19.02208696674354 ], [ -70.960930804779778, 19.044959281246769 ], [ -70.894290303941574, 19.003919355601401 ], [ -70.889944415511806, 18.97090897582645 ], [ -70.93255309627564, 18.958842213081518 ], [ -70.923058578824111, 18.92529251213579 ], [ -70.99648204812658, 18.896739329287495 ], [ -70.972234641820307, 18.805753640830279 ], [ -70.986661800258787, 18.762753257106539 ], [ -71.009386311098993, 18.750019303616082 ], [ -71.029921271052501, 18.787834869038029 ], [ -71.054072831838511, 18.755627946078825 ], [ -71.053191962725379, 18.675849581986462 ], [ -71.075757343697461, 18.694785752482623 ], [ -71.105117883818991, 18.643837667596348 ], [ -71.161560493783981, 18.619117692772122 ], [ -71.317689486834453, 18.625036976888136 ], [ -71.358619227496021, 18.587770441426262 ], [ -71.578457787385801, 18.652958912658647 ], [ -71.567039721218492, 18.781469825830126 ], [ -71.630299113360465, 18.805883216893431 ], [ -71.61719690773981, 18.884894704146205 ], [ -71.652686495575566, 18.882768157356839 ], [ -71.616801674329338, 18.938787772304657 ], [ -71.643797553470492, 18.945035621525513 ], [ -71.571913481629807, 19.001098047496267 ], [ -71.507174750987289, 19.009736005249284 ], [ -71.467306931987139, 19.125374483222622 ], [ -71.349933196119437, 19.107883484178124 ], [ -71.341814044235562, 19.171323184370106 ], [ -71.206211299485076, 19.178711020138476 ] ] ] } },
{ "type": "Feature", "properties": { "PROV": "23", "region_code": "09", "province": "San Pedro De Macoris", "province_key": "SAN PEDRO DE MACORIS", "businesses": 2205.0, "population": 310003.0, "business_density": 7.1128343919252401, "opportunity": 16.148565232745455, "label": "San Pedro De Macoris: 7.1 empresas por 1,000 hab." }, "geometry": { "type": "Polygon", "coordinates": [ [ [ -69.451896501867225, 18.813172151320789 ], [ -69.437780195976089, 18.67414461290279 ], [ -69.348905546810812, 18.526891139925052 ], [ -69.296723661468363, 18.575497234493682 ], [ -69.291881164938417, 18.625398460749885 ], [ -69.251894808157161, 18.633015646736371 ], [ -69.234194643656323, 18.66825584198159 ], [ -69.157712535085679, 18.583872971630147 ], [ -69.067127380277284, 18.592871379671148 ], [ -69.119572618347533, 18.476423814839606 ], [ -69.084314250160645, 18.39298540506066 ], [ -69.18317702106016, 18.420396600616439 ], [ -69.206590321446413, 18.451678579849141 ], [ -69.298992306410639, 18.434082751451228 ], [ -69.325381248849979, 18.468676396804359 ], [ -69.330989492791062, 18.425399121285849 ], [ -69.521206661075112, 18.403797569677231 ], [ -69.51499031821055, 18.47480128694674 ], [ -69.588276524323888, 18.489790552387216 ], [ -69.614190121187306, 18.52713036479712 ], [ -69.572578198055183, 18.580404292339082 ], [ -69.590539349164587, 18.628619495207349 ], [ -69.531496039025797, 18.742504286824971 ], [ -69.451896501867225, 18.813172151320789 ] ] ] } },
{ "type": "Feature", "properties": { "PROV": "24", "region_code": "02", "province": "Sanchez Ramirez", "province_key": "SANCHEZ RAMIREZ", "businesses": 1173.0, "population": 151460.0, "business_density": 7.7446190413310445, "opportunity": 17.949429639187343, "label": "Sanchez Ramirez: 7.7 empresas por 1,000 hab." }, "geometry": { "type": "Polygon", "coordinates": [ [ [ -70.267639819015159, 19.163033352351235 ], [ -70.20853881432781, 19.141772035942701 ], [ -70.177838963975006, 19.165701430766187 ], [ -70.076423429674264, 19.151520667302584 ], [ -69.996313758025693, 19.073160634649255 ], [ -69.988431948960539, 19.099663147674146 ], [ -69.945989455053862, 19.097992865643022 ], [ -69.951583412040776, 19.126625854684278 ], [ -69.895837470910436, 19.098876739339591 ], [ -69.95318206547644, 18.904120989286394 ], [ -69.997302613603225, 18.887886896502813 ], [ -70.016803472536139, 18.915625082298764 ], [ -70.029438483139899, 18.885490317907845 ], [ -70.190860555845134, 18.875257182666608 ], [ -70.223143598134882, 18.84628179889766 ], [ -70.245411943890403, 18.841217921675735 ], [ -70.221500627929558, 18.880470600234691 ], [ -70.255995565380047, 18.930078494041602 ], [ -70.291253488303184, 18.931564790876429 ], [ -70.371346004273846, 19.014910660930305 ], [ -70.330433921780866, 19.140598437224977 ], [ -70.267639819015159, 19.163033352351235 ] ] ] } },
{ "type": "Feature", "properties": { "PROV": "25", "region_code": "01", "province": "Santiago", "province_key": "SANTIAGO", "businesses": 18430.0, "population": 1079207.0, "business_density": 17.077354020127743, "opportunity": 44.551833249147201, "label": "Santiago: 17.1 empresas por 1,000 hab." }, "geometry": { "type": "Polygon", "coordinates": [ [ [ -70.877016666943319, 19.650598333125682 ], [ -70.801751977064313, 19.631112857419772 ], [ -70.747302360943749, 19.580343687356649 ], [ -70.688364290241879, 19.646560406439054 ], [ -70.63092773762861, 19.608310652019703 ], [ -70.626781374520789, 19.550673085466244 ], [ -70.574093832916901, 19.54445286058484 ], [ -70.548650375452198, 19.498567805923877 ], [ -70.58265899576827, 19.484040543655386 ], [ -70.57942386713286, 19.386358845932204 ], [ -70.635645784540728, 19.373977135619377 ], [ -70.673865283797127, 19.284883540540552 ], [ -70.719283012256199, 19.296749610712496 ], [ -70.679526681805882, 19.264981795942958 ], [ -70.683402769638576, 19.181574520978842 ], [ -70.729614625764754, 19.208634269847792 ], [ -70.732089261127825, 19.165116472806051 ], [ -70.808057345632363, 19.140005303122905 ], [ -70.847801114472503, 19.095878466475515 ], [ -70.945339024707991, 19.095856370291795 ], [ -70.96020700737435, 19.04470047926986 ], [ -71.046001894606135, 19.021891241005488 ], [ -71.217049269742333, 19.177991018867953 ], [ -71.258025627659521, 19.26066187120345 ], [ -71.252801813420234, 19.327853683738862 ], [ -71.218285054488746, 19.374056001454207 ], [ -71.151646199229447, 19.373745313221274 ], [ -71.072398569697228, 19.422441456875909 ], [ -71.085583401543076, 19.47192201298445 ], [ -70.992611492017318, 19.433632325293402 ], [ -70.973806470623231, 19.457312133818995 ], [ -70.885955596941074, 19.44906310555702 ], [ -70.908521851188794, 19.486167454139167 ], [ -70.89528345551426, 19.543431291313869 ], [ -70.937345624515032, 19.55614714455297 ], [ -70.929775192396946, 19.591995256976549 ], [ -70.893150443521904, 19.563414652830382 ], [ -70.877016666943319, 19.650598333125682 ] ] ] } },
{ "type": "Feature", "properties": { "PROV": "26", "region_code": "04", "province": "Santiago Rodriguez", "province_key": "SANTIAGO RODRIGUEZ", "businesses": 445.0, "population": 56940.0, "business_density": 7.8152441166139797, "opportunity": 18.150742197824112, "label": "Santiago Rodriguez: 7.8 empresas por 1,000 hab." }, "geometry": { "type": "Polygon", "coordinates": [ [ [ -71.309871428550096, 19.559652023882233 ], [ -71.238474525765497, 19.523867999834497 ], [ -71.208363287380323, 19.544761213628959 ], [ -71.182137918894625, 19.474688922772678 ], [ -71.07823411223599, 19.464254277739737 ], [ -71.09739580933865, 19.450554761237605 ], [ -71.073042291380034, 19.421929377791535 ], [ -71.151646199229447, 19.373745313221274 ], [ -71.218285054488746, 19.374056001454207 ], [ -71.252633667552303, 19.328441246816254 ], [ -71.258025627659521, 19.26066187120345 ], [ -71.217049269742333, 19.177991018867953 ], [ -71.239835640802028, 19.171317288816141 ], [ -71.317787356471271, 19.172131487711319 ], [ -71.516554943394254, 19.274790497235905 ], [ -71.519415193558032, 19.321562937798522 ], [ -71.466942638218768, 19.383832922282771 ], [ -71.464235946135076, 19.496439037313117 ], [ -71.417021056063177, 19.556674965861699 ], [ -71.309871428550096, 19.559652023882233 ] ] ] } },
{ "type": "Feature", "properties": { "PROV": "27", "region_code": "04", "province": "Valverde", "province_key": "VALVERDE", "businesses": 1588.0, "population": 182346.0, "business_density": 8.7087185899334241, "opportunity": 20.697537816519024, "label": "Valverde: 8.7 empresas por 1,000 hab." }, "geometry": { "type": "Polygon", "coordinates": [ [ [ -71.138740171068093, 19.756910772611217 ], [ -70.881350793650839, 19.656030969637612 ], [ -70.893118318792204, 19.563469565311632 ], [ -70.929775192396946, 19.591995256976549 ], [ -70.937345624515032, 19.55614714455297 ], [ -70.89528345551426, 19.543431291313869 ], [ -70.908521851188794, 19.486167454139167 ], [ -70.885955596941074, 19.44906310555702 ], [ -70.973806470623231, 19.457312133818995 ], [ -70.992611492017318, 19.433632325293402 ], [ -71.008520665187746, 19.456680493164381 ], [ -71.182137918894625, 19.474688922772678 ], [ -71.189313189825057, 19.617935929684336 ], [ -71.164722414710553, 19.630360462847552 ], [ -71.138740171068093, 19.756910772611217 ] ] ] } },
{ "type": "Feature", "properties": { "PROV": "28", "region_code": "02", "province": "Monsenor Nouel", "province_key": "MONSENOR NOUEL", "businesses": 1685.0, "population": 177606.0, "business_density": 9.4872920959877494, "opportunity": 22.916815091094449, "label": "Monsenor Nouel: 9.5 empresas por 1,000 hab." }, "geometry": { "type": "Polygon", "coordinates": [ [ [ -70.435799674175044, 19.131641292265083 ], [ -70.377625931533359, 19.0650206907046 ], [ -70.366202831925875, 19.000959894243501 ], [ -70.221542833905545, 18.880760721941929 ], [ -70.24980968508001, 18.805855548136922 ], [ -70.302885218865015, 18.776148856540601 ], [ -70.29718398547935, 18.741615689838365 ], [ -70.32960227269119, 18.715435642799513 ], [ -70.410375051536818, 18.761619079985227 ], [ -70.50198243236315, 18.77226261932265 ], [ -70.566145392932128, 18.83095710503709 ], [ -70.58301027503741, 18.92013746577237 ], [ -70.515783197468352, 19.00173996193698 ], [ -70.539750604164936, 19.102395730212962 ], [ -70.507137359378433, 19.112701313756045 ], [ -70.484693073600099, 19.091576512067231 ], [ -70.435799674175044, 19.131641292265083 ] ] ] } },
{ "type": "Feature", "properties": { "PROV": "29", "region_code": "09", "province": "Monte Plata", "province_key": "MONTE PLATA", "businesses": 434.0, "population": 192997.0, "business_density": 2.2487396177142651, "opportunity": 2.2837536127180256, "label": "Monte Plata: 2.2 empresas por 1,000 hab." }, "geometry": { "type": "Polygon", "coordinates": [ [ [ -69.750361149520472, 19.095940852426278 ], [ -69.633443327228875, 18.996344956201575 ], [ -69.517703239119797, 18.936299956476748 ], [ -69.506162342647542, 18.950903575875955 ], [ -69.426097113573562, 18.884803332378887 ], [ -69.364793051937369, 18.888002779009032 ], [ -69.444906462376153, 18.806950711278621 ], [ -69.458241544941302, 18.821952957466412 ], [ -69.488664701778418, 18.798282638791949 ], [ -69.568164018179445, 18.653301771759146 ], [ -69.616489026340361, 18.677279934276743 ], [ -69.721450456188549, 18.646727037842542 ], [ -69.786392548185603, 18.574518535439562 ], [ -69.866493353653851, 18.708629884671428 ], [ -69.915104253936235, 18.694498583809647 ], [ -69.957869428975044, 18.714812702875999 ], [ -69.965675620570494, 18.682900535685512 ], [ -70.03210218727628, 18.662967732407214 ], [ -70.165099973148486, 18.727946068589272 ], [ -70.24870966856524, 18.807630611623825 ], [ -70.247486490801421, 18.840442238326951 ], [ -70.193650306381059, 18.874655128261246 ], [ -70.048998874887303, 18.880843803711898 ], [ -70.01602967003538, 18.915781809279306 ], [ -69.99843441520197, 18.888131223686266 ], [ -69.965908249740565, 18.893934089050035 ], [ -69.914292808478208, 19.040164381511932 ], [ -69.869337041151681, 19.045332123605309 ], [ -69.87640540149215, 19.086169950443441 ], [ -69.750361149520472, 19.095940852426278 ] ] ] } },
{ "type": "Feature", "properties": { "PROV": "30", "region_code": "09", "province": "Hato Mayor", "province_key": "HATO MAYOR", "businesses": 439.0, "population": 85659.0, "business_density": 5.124972273783257, "opportunity": 10.482283000590932, "label": "Hato Mayor: 5.1 empresas por 1,000 hab." }, "geometry": { "type": "MultiPolygon", "coordinates": [ [ [ [ -69.599311313663009, 19.080907295446778 ], [ -69.602129595413658, 19.081300267316447 ], [ -69.601568633407581, 19.081918888514377 ], [ -69.599311313663009, 19.080907295446778 ] ] ], [ [ [ -69.592507719184169, 19.083299300769696 ], [ -69.590626639434561, 19.082412912003857 ], [ -69.591677794817656, 19.082303353521443 ], [ -69.592507719184169, 19.083299300769696 ] ] ], [ [ [ -69.537929541970669, 19.082974131143846 ], [ -69.537042483098347, 19.083137129673002 ], [ -69.537422096331525, 19.082855867261554 ], [ -69.537929541970669, 19.082974131143846 ] ] ], [ [ [ -69.538616257455999, 19.085251781562199 ], [ -69.53842632341258, 19.084572280678653 ], [ -69.538726757952347, 19.084607551932915 ], [ -69.538616257455999, 19.085251781562199 ] ] ], [ [ [ -69.555443447448653, 19.085344174865867 ], [ -69.554091274944085, 19.085348244948808 ], [ -69.554050814964484, 19.084525975160719 ], [ -69.555443447448653, 19.085344174865867 ] ] ], [ [ [ -69.540082634158139, 19.08574680038188 ], [ -69.541955949150505, 19.084313410622617 ], [ -69.541670141651394, 19.088776408565685 ], [ -69.540082634158139, 19.08574680038188 ] ] ], [ [ [ -69.547258304467533, 19.086297240756668 ], [ -69.549854447264508, 19.087611214402674 ], [ -69.54722333999959, 19.087047438391611 ], [ -69.547258304467533, 19.086297240756668 ] ] ], [ [ [ -69.5379790938441, 19.08571680345322 ], [ -69.538700069838271, 19.087928832302953 ], [ -69.536188818198426, 19.089614831891897 ], [ -69.5379790938441, 19.08571680345322 ] ] ], [ [ [ -69.57757643514509, 19.088310396237823 ], [ -69.57580795648731, 19.087423503208662 ], [ -69.57937268039305, 19.086413716305465 ], [ -69.57757643514509, 19.088310396237823 ] ] ], [ [ [ -69.53926953429314, 19.089856626508553 ], [ -69.5381789479964, 19.089466693113327 ], [ -69.538703884221874, 19.08910818660495 ], [ -69.53926953429314, 19.089856626508553 ] ] ], [ [ [ -69.542987882049289, 19.089773408941166 ], [ -69.543725970883628, 19.085736087923582 ], [ -69.546305904175711, 19.093620257311226 ], [ -69.542987882049289, 19.089773408941166 ] ] ], [ [ [ -69.567992081908443, 19.089280227303885 ], [ -69.567937697405014, 19.091288847885597 ], [ -69.567043592788849, 19.089472350438584 ], [ -69.567992081908443, 19.089280227303885 ] ] ], [ [ [ -69.561435681244333, 19.09136064640726 ], [ -69.559554900698942, 19.090543977316514 ], [ -69.560714869777087, 19.089291050611855 ], [ -69.561435681244333, 19.09136064640726 ] ] ], [ [ [ -69.569476839459682, 19.092300694986232 ], [ -69.569058797147932, 19.090801804162609 ], [ -69.57093668112681, 19.090759846107666 ], [ -69.569476839459682, 19.092300694986232 ] ] ], [ [ [ -69.564629523750654, 19.091744007335127 ], [ -69.563838286360763, 19.090996338548837 ], [ -69.564363837200048, 19.090922431604486 ], [ -69.564629523750654, 19.091744007335127 ] ] ], [ [ [ -69.543485566207821, 19.092627720620097 ], [ -69.542958135329343, 19.092129966253573 ], [ -69.543484054591787, 19.092164564798932 ], [ -69.543485566207821, 19.092627720620097 ] ] ], [ [ [ -69.547507711706828, 19.093580540712402 ], [ -69.548142929658965, 19.092613923614564 ], [ -69.548594936402523, 19.092935660625777 ], [ -69.547507711706828, 19.093580540712402 ] ] ], [ [ [ -69.544321162010462, 19.095519439993481 ], [ -69.544806503814584, 19.09458942587106 ], [ -69.547326658906982, 19.095616723066275 ], [ -69.544321162010462, 19.095519439993481 ] ] ], [ [ [ -69.541762198642374, 19.094062944843039 ], [ -69.542477676365806, 19.094560148857497 ], [ -69.541838981749251, 19.094562028418327 ], [ -69.541762198642374, 19.094062944843039 ] ] ], [ [ [ -69.417262621148794, 19.103230078074947 ], [ -69.342160958480392, 19.043292417223984 ], [ -69.31059368354984, 19.048510904882882 ], [ -69.261181998071251, 19.015690631932131 ], [ -69.223736076358264, 19.027716832135521 ], [ -69.20392508911506, 19.007346360223234 ], [ -69.182148551838139, 19.007233524114973 ], [ -69.182060270347719, 18.968355850390587 ], [ -69.122135118491798, 18.920442974960217 ], [ -69.268938328095544, 18.954974562512952 ], [ -69.321725511502862, 18.936857394171792 ], [ -69.328394516323058, 18.888350793957304 ], [ -69.281956124425207, 18.838624592635856 ], [ -69.264106994065017, 18.847528085249905 ], [ -69.201047556687996, 18.760534485738546 ], [ -69.227426686811583, 18.668561010372628 ], [ -69.291881164938417, 18.625398460749885 ], [ -69.296723661468363, 18.575497234493682 ], [ -69.348905546810812, 18.526891139925052 ], [ -69.437780195976089, 18.67414461290279 ], [ -69.429122257898612, 18.727907717787112 ], [ -69.45754871229687, 18.771184401405133 ], [ -69.443958589216763, 18.822753039290859 ], [ -69.366051058473573, 18.890987248920364 ], [ -69.426097113573562, 18.884803332378887 ], [ -69.506162342647542, 18.950903575875955 ], [ -69.517703239119797, 18.936299956476748 ], [ -69.624300218844496, 18.992196295100687 ], [ -69.602710528075804, 19.080948176903238 ], [ -69.45497790270089, 19.070403600179997 ], [ -69.438856914297844, 19.097386925921903 ], [ -69.478294132891406, 19.090594337089829 ], [ -69.479479174488858, 19.094222010661181 ], [ -69.417262621148794, 19.103230078074947 ] ] ], [ [ [ -69.19044667809105, 19.009834783596212 ], [ -69.173416881839657, 19.010936054350047 ], [ -69.185471313494915, 19.007397418242057 ], [ -69.19044667809105, 19.009834783596212 ] ] ], [ [ [ -69.490054695100653, 19.079130807917895 ], [ -69.490125153459843, 19.079665486024513 ], [ -69.489825333874151, 19.079218742628388 ], [ -69.490054695100653, 19.079130807917895 ] ] ], [ [ [ -69.470046807577589, 19.081788317797436 ], [ -69.469144080851692, 19.081158001833529 ], [ -69.470280197830235, 19.081229665219293 ], [ -69.470046807577589, 19.081788317797436 ] ] ], [ [ [ -69.466169594170452, 19.082170955129342 ], [ -69.465189391584289, 19.08187519819344 ], [ -69.466323621142223, 19.08116515822994 ], [ -69.466169594170452, 19.082170955129342 ] ] ], [ [ [ -69.534650858573144, 19.081817859464152 ], [ -69.533366457940986, 19.083127469462138 ], [ -69.533550136474659, 19.081118398973604 ], [ -69.534650858573144, 19.081817859464152 ] ] ], [ [ [ -69.492619450050015, 19.082262800657016 ], [ -69.492253143177962, 19.08263248467733 ], [ -69.492332587821124, 19.082307087279446 ], [ -69.492619450050015, 19.082262800657016 ] ] ], [ [ [ -69.528639402130935, 19.084501200737765 ], [ -69.529914494390951, 19.083892040229557 ], [ -69.530066274703316, 19.084354765295746 ], [ -69.528639402130935, 19.084501200737765 ] ] ], [ [ [ -69.508754578716164, 19.088556174573771 ], [ -69.507514707571602, 19.088478257517416 ], [ -69.50807602088183, 19.08775372531672 ], [ -69.508754578716164, 19.088556174573771 ] ] ], [ [ [ -69.513230814225821, 19.087633253149495 ], [ -69.514645249165781, 19.089504550587034 ], [ -69.513831722956624, 19.090604854028825 ], [ -69.513230814225821, 19.087633253149495 ] ] ], [ [ [ -69.518869454473318, 19.089117656465088 ], [ -69.518051039211841, 19.088636463172367 ], [ -69.518923389715255, 19.088313184378205 ], [ -69.518869454473318, 19.089117656465088 ] ] ], [ [ [ -69.512559163690383, 19.089081092549712 ], [ -69.511380175364266, 19.090451261718968 ], [ -69.51188141194757, 19.088547515619442 ], [ -69.512559163690383, 19.089081092549712 ] ] ], [ [ [ -69.50980228804292, 19.090295221647136 ], [ -69.508896530181929, 19.088930831279402 ], [ -69.51008053916712, 19.08919641787941 ], [ -69.50980228804292, 19.090295221647136 ] ] ], [ [ [ -69.522931361953297, 19.090502437383492 ], [ -69.522814005171469, 19.089266919593882 ], [ -69.523490110861474, 19.08926500014427 ], [ -69.522931361953297, 19.090502437383492 ] ] ], [ [ [ -69.517433791004578, 19.089415405771199 ], [ -69.516032605317193, 19.091830036609142 ], [ -69.516897242068737, 19.089014751413966 ], [ -69.517433791004578, 19.089415405771199 ] ] ], [ [ [ -69.499549703599143, 19.09088361597302 ], [ -69.499915182124212, 19.09061602368369 ], [ -69.499831400424114, 19.090909964028469 ], [ -69.499549703599143, 19.09088361597302 ] ] ], [ [ [ -69.520845477861442, 19.090343414423884 ], [ -69.518145949535594, 19.091930294048328 ], [ -69.520843803302597, 19.089807958998168 ], [ -69.520845477861442, 19.090343414423884 ] ] ], [ [ [ -69.501381607371059, 19.091147500782121 ], [ -69.501890955165479, 19.091896211837003 ], [ -69.501327178598203, 19.091816410752351 ], [ -69.501381607371059, 19.091147500782121 ] ] ], [ [ [ -69.500710165412656, 19.092703746124673 ], [ -69.500228553255042, 19.091792284693877 ], [ -69.500820090282545, 19.091817789762391 ], [ -69.500710165412656, 19.092703746124673 ] ] ] ] } },
{ "type": "Feature", "properties": { "PROV": "31", "region_code": "05", "province": "San Jose De Ocoa", "province_key": "SAN JOSE DE OCOA", "businesses": 239.0, "population": 51501.0, "business_density": 4.6406865886099293, "opportunity": 9.1018555815357001, "label": "San Jose De Ocoa: 4.6 empresas por 1,000 hab." }, "geometry": { "type": "Polygon", "coordinates": [ [ [ -70.528660217142928, 18.792974456260232 ], [ -70.343637819767849, 18.725938120590783 ], [ -70.382154734604228, 18.555519144650457 ], [ -70.348185086139893, 18.50939487794146 ], [ -70.467815437899816, 18.452613632849449 ], [ -70.478140056487646, 18.41994755446056 ], [ -70.505026993479774, 18.491150305243789 ], [ -70.609840523809595, 18.530611506990084 ], [ -70.671026858777267, 18.593758979270806 ], [ -70.661465140297992, 18.654257235436344 ], [ -70.686635648858413, 18.684653258868419 ], [ -70.592110598571423, 18.686442179896044 ], [ -70.599301695674882, 18.710517764879167 ], [ -70.533064358733711, 18.75626958708219 ], [ -70.528660217142928, 18.792974456260232 ] ] ] } },
{ "type": "Feature", "properties": { "PROV": "32", "region_code": "10", "province": "Santo Domingo", "province_key": "SANTO DOMINGO", "businesses": 20395.0, "population": 3151170.0, "business_density": 6.4721992148947844, "opportunity": 14.322472925954202, "label": "Santo Domingo: 6.5 empresas por 1,000 hab." }, "geometry": { "type": "MultiPolygon", "coordinates": [ [ [ [ -69.626268159639508, 18.441327429815235 ], [ -69.625735929111286, 18.438371952322022 ], [ -69.63023748637049, 18.437211438799778 ], [ -69.626268159639508, 18.441327429815235 ] ] ], [ [ [ -69.614732154723754, 18.442647332950045 ], [ -69.614169552168477, 18.444071311013275 ], [ -69.61299743058369, 18.443702631656237 ], [ -69.614732154723754, 18.442647332950045 ] ] ], [ [ [ -70.139468202944983, 18.727693777451567 ], [ -70.095185410300104, 18.682694528392496 ], [ -70.020277299239098, 18.660103262399193 ], [ -69.965675620570494, 18.682900535685512 ], [ -69.958268847146897, 18.714693360214209 ], [ -69.915104253936235, 18.694498583809647 ], [ -69.866493353653851, 18.708629884671428 ], [ -69.786392548185603, 18.574518535439562 ], [ -69.721450456188549, 18.646727037842542 ], [ -69.616489026340361, 18.677279934276743 ], [ -69.570637831501529, 18.651065721321206 ], [ -69.590539349164587, 18.628619495207349 ], [ -69.572578198055183, 18.580404292339082 ], [ -69.614070627449422, 18.522704277487808 ], [ -69.58685686677849, 18.48908069255409 ], [ -69.51499031821055, 18.47480128694674 ], [ -69.521206661075112, 18.403797569677231 ], [ -69.597562257331887, 18.447994125061211 ], [ -69.62111009416877, 18.447637038892658 ], [ -69.632670316403932, 18.43883389692688 ], [ -69.634356232396513, 18.400241312488454 ], [ -69.698119202409558, 18.453671855081247 ], [ -69.885374731030794, 18.463600574438424 ], [ -69.877868350059927, 18.50729702982753 ], [ -69.948160122372727, 18.514163805675629 ], [ -69.980407246129673, 18.547593338870339 ], [ -69.999244413886174, 18.504646792001143 ], [ -69.969072748482034, 18.46201877738639 ], [ -70.016620886495545, 18.413107277960727 ], [ -70.013477846952313, 18.476435432359967 ], [ -70.065915819349897, 18.464618588980077 ], [ -70.072326921293381, 18.515749784737356 ], [ -70.124760835140037, 18.526315533095101 ], [ -70.152872920310386, 18.594581134922056 ], [ -70.150296823523121, 18.628276548770192 ], [ -70.12582509339984, 18.630746980470104 ], [ -70.175453494980573, 18.720272382313805 ], [ -70.139468202944983, 18.727693777451567 ] ] ] ] } }
]
}
