{
"type": "FeatureCollection",
"name": "rd-regions-mipymes",
"crs": { "type": "name", "properties": { "name": "urn:ogc:def:crs:OGC:1.3:CRS84" } },
"features": [
{ "type": "Feature", "properties": { "region": "Este", "pct_micro": 95.931651749389744, "pct_informal": 70.207245018185162, "label": "Este: 95.9% micro; 70.2% informal" }, "geometry": { "type": "MultiPolygon", "coordinates": [ [ [ [ -69.20392508911506, 19.007346360223234 ], [ -69.182148551838139, 19.007233524114973 ], [ -69.18213473601925, 19.001152894591627 ], [ -69.181109744001432, 19.006256219350604 ], [ -69.138197803636558, 19.002187902513608 ], [ -69.144276951537066, 19.043593731442076 ], [ -69.073609961260061, 18.986589677790821 ], [ -69.013270147493103, 18.988058909799584 ], [ -69.015034068183709, 19.014760047303785 ], [ -68.942410132800134, 19.031476444500186 ], [ -68.745865936050123, 18.959415745329064 ], [ -68.327357264485855, 18.621028571031452 ], [ -68.333684719702703, 18.568683647366118 ], [ -68.444555724802015, 18.425130700513197 ], [ -68.464504706789697, 18.34471653396453 ], [ -68.593803851732318, 18.380405374371936 ], [ -68.618006194873416, 18.367412301533065 ], [ -68.602118998165139, 18.331873940424597 ], [ -68.64265448075777, 18.209860128569673 ], [ -68.737827692949892, 18.203704300866764 ], [ -68.74394547229501, 18.223354096249153 ], [ -68.754725053577147, 18.202325220687271 ], [ -68.812944246353624, 18.33469217455719 ], [ -68.897642629782965, 18.405750526647303 ], [ -69.084314250160645, 18.39298540506066 ], [ -69.18317702106016, 18.420396600616439 ], [ -69.206590321446413, 18.451678579849141 ], [ -69.298992306410639, 18.434082751451228 ], [ -69.325381248849979, 18.468676396804359 ], [ -69.330989492791062, 18.425399121285849 ], [ -69.521206661075112, 18.403797569677231 ], [ -69.51499031821055, 18.47480128694674 ], [ -69.58685686677849, 18.48908069255409 ], [ -69.614070627449422, 18.522704277487808 ], [ -69.572578198055183, 18.580404292339082 ], [ -69.590539349164587, 18.628619495207349 ], [ -69.57077189677193, 18.652068672079007 ], [ -69.616489026340361, 18.677279934276743 ], [ -69.721450456188549, 18.646727037842542 ], [ -69.786392548185603, 18.574518535439562 ], [ -69.866493353653851, 18.708629884671428 ], [ -69.915104253936235, 18.694498583809644 ], [ -69.957869428975044, 18.714812702875999 ], [ -69.965675620570494, 18.682900535685512 ], [ -70.03210218727628, 18.662967732407214 ], [ -70.165099973148486, 18.727946068589272 ], [ -70.24870966856524, 18.807630611623829 ], [ -70.247486490801421, 18.840442238326951 ], [ -70.193650306381059, 18.874655128261246 ], [ -70.048998874887303, 18.880843803711898 ], [ -70.01602967003538, 18.915781809279306 ], [ -69.99843441520197, 18.888131223686266 ], [ -69.958777312601981, 18.898266865993342 ], [ -69.914292808478208, 19.040164381511932 ], [ -69.869337041151681, 19.045332123605309 ], [ -69.876285054045027, 19.086276927016581 ], [ -69.733628791310323, 19.095188970570902 ], [ -69.624300218844496, 18.992196295100683 ], [ -69.602710528075804, 19.080948176903238 ], [ -69.600179761234713, 19.079392995789132 ], [ -69.598070858472042, 19.080906805501467 ], [ -69.596887962070866, 19.078565480945926 ], [ -69.580748497795128, 19.082625043548298 ], [ -69.575005025480777, 19.086050090290595 ], [ -69.574762409657978, 19.088999246752319 ], [ -69.565080534652353, 19.08624797610452 ], [ -69.565687909917102, 19.092165511587538 ], [ -69.561438151816887, 19.085924729521761 ], [ -69.532497631813442, 19.078493847656414 ], [ -69.501283038117379, 19.089981954228247 ], [ -69.45497790270089, 19.070403600179997 ], [ -69.438856914297844, 19.097386925921903 ], [ -69.478294132891406, 19.090594337089829 ], [ -69.479479174488858, 19.094222010661181 ], [ -69.417262621148794, 19.103230078074947 ], [ -69.342160958480392, 19.043292417223984 ], [ -69.31059368354984, 19.048510904882882 ], [ -69.261181998071251, 19.015690631932131 ], [ -69.223736076358264, 19.027716832135521 ], [ -69.20392508911506, 19.007346360223234 ] ], [ [ -69.182060270347719, 18.968355850390587 ], [ -69.122135118491798, 18.920442974960217 ], [ -69.182078877688085, 18.976554776457135 ], [ -69.182060270347719, 18.968355850390587 ] ] ], [ [ [ -69.601568633407581, 19.081918888514377 ], [ -69.599311313663009, 19.080907295446778 ], [ -69.602129595413658, 19.081300267316447 ], [ -69.601568633407581, 19.081918888514377 ] ] ], [ [ [ -69.591677794817656, 19.082303353521443 ], [ -69.592507719184169, 19.083299300769696 ], [ -69.590626639434561, 19.082412912003861 ], [ -69.591677794817656, 19.082303353521443 ] ] ], [ [ [ -69.555443447448653, 19.085344174865867 ], [ -69.554091274944085, 19.085348244948808 ], [ -69.554050814964484, 19.084525975160723 ], [ -69.555443447448653, 19.085344174865867 ] ] ], [ [ [ -69.547971065210589, 19.085974299652847 ], [ -69.549854447264508, 19.087611214402674 ], [ -69.54722333999959, 19.087047438391611 ], [ -69.547971065210589, 19.085974299652847 ] ] ], [ [ [ -69.57937268039305, 19.086413716305465 ], [ -69.57757643514509, 19.088310396237823 ], [ -69.57580795648731, 19.087423503208662 ], [ -69.57937268039305, 19.086413716305465 ] ] ], [ [ [ -69.542987882049289, 19.089773408941163 ], [ -69.543725970883628, 19.085736087923582 ], [ -69.546305904175711, 19.093620257311226 ], [ -69.542987882049289, 19.089773408941163 ] ] ], [ [ [ -69.567992081908443, 19.089280227303885 ], [ -69.567937697405014, 19.091288847885597 ], [ -69.567043592788849, 19.089472350438584 ], [ -69.567992081908443, 19.089280227303885 ] ] ], [ [ [ -69.560714869777087, 19.089291050611855 ], [ -69.561435681244333, 19.09136064640726 ], [ -69.559554900698942, 19.090543977316511 ], [ -69.560714869777087, 19.089291050611855 ] ] ], [ [ [ -69.564629523750654, 19.091744007335127 ], [ -69.563838286360763, 19.090996338548837 ], [ -69.564363837200048, 19.090922431604486 ], [ -69.564629523750654, 19.091744007335127 ] ] ], [ [ [ -69.569476839459682, 19.092300694986232 ], [ -69.569058797147932, 19.090801804162609 ], [ -69.57093668112681, 19.090759846107666 ], [ -69.569476839459682, 19.092300694986232 ] ] ], [ [ [ -69.543484054591787, 19.092164564798932 ], [ -69.543485566207821, 19.092627720620097 ], [ -69.542958135329343, 19.092129966253573 ], [ -69.543484054591787, 19.092164564798932 ] ] ], [ [ [ -69.548594936402523, 19.092935660625777 ], [ -69.547507711706828, 19.093580540712402 ], [ -69.548142929658965, 19.092613923614564 ], [ -69.548594936402523, 19.092935660625777 ] ] ], [ [ [ -69.541838981749251, 19.094562028418327 ], [ -69.541762198642374, 19.094062944843039 ], [ -69.542477676365806, 19.094560148857497 ], [ -69.541838981749251, 19.094562028418327 ] ] ], [ [ [ -69.544321162010462, 19.095519439993481 ], [ -69.544806503814584, 19.094589425871064 ], [ -69.547326658906982, 19.095616723066279 ], [ -69.544321162010462, 19.095519439993481 ] ] ], [ [ [ -69.534650858573144, 19.081817859464152 ], [ -69.533366457940986, 19.083127469462138 ], [ -69.533550136474659, 19.081118398973604 ], [ -69.534650858573144, 19.081817859464152 ] ] ], [ [ [ -69.537422096331525, 19.082855867261554 ], [ -69.537929541970669, 19.082974131143846 ], [ -69.537042483098347, 19.083137129673002 ], [ -69.537422096331525, 19.082855867261554 ] ] ], [ [ [ -69.528639402130935, 19.084501200737765 ], [ -69.529313564095787, 19.083893766920575 ], [ -69.530066274703316, 19.084354765295746 ], [ -69.528639402130935, 19.084501200737765 ] ] ], [ [ [ -69.538616257455999, 19.085251781562199 ], [ -69.53842632341258, 19.084572280678657 ], [ -69.538726757952347, 19.084607551932915 ], [ -69.538616257455999, 19.085251781562199 ] ] ], [ [ [ -69.541670141651394, 19.088776408565685 ], [ -69.540082634158139, 19.08574680038188 ], [ -69.541955949150505, 19.084313410622617 ], [ -69.541670141651394, 19.088776408565685 ] ] ], [ [ [ -69.5379790938441, 19.08571680345322 ], [ -69.538700069838271, 19.087928832302953 ], [ -69.536188818198426, 19.089614831891893 ], [ -69.5379790938441, 19.08571680345322 ] ] ], [ [ [ -69.508754578716164, 19.088556174573771 ], [ -69.507514707571602, 19.088478257517416 ], [ -69.50807602088183, 19.08775372531672 ], [ -69.508754578716164, 19.088556174573771 ] ] ], [ [ [ -69.518923389715255, 19.088313184378205 ], [ -69.518869454473318, 19.089117656465088 ], [ -69.518051039211841, 19.088636463172367 ], [ -69.518923389715255, 19.088313184378205 ] ] ], [ [ [ -69.513831722956624, 19.090604854028825 ], [ -69.513230814225821, 19.087633253149495 ], [ -69.514645249165781, 19.089504550587034 ], [ -69.513831722956624, 19.090604854028825 ] ] ], [ [ [ -69.51188141194757, 19.088547515619442 ], [ -69.512559163690383, 19.089081092549712 ], [ -69.511380175364266, 19.090451261718968 ], [ -69.51188141194757, 19.088547515619442 ] ] ], [ [ [ -69.53926953429314, 19.089856626508553 ], [ -69.5381789479964, 19.089466693113327 ], [ -69.538703884221874, 19.08910818660495 ], [ -69.53926953429314, 19.089856626508553 ] ] ], [ [ [ -69.50980228804292, 19.090295221647136 ], [ -69.508896530181929, 19.088930831279399 ], [ -69.51008053916712, 19.08919641787941 ], [ -69.50980228804292, 19.090295221647136 ] ] ], [ [ [ -69.523490110861474, 19.08926500014427 ], [ -69.522931361953297, 19.090502437383492 ], [ -69.522814005171469, 19.089266919593882 ], [ -69.523490110861474, 19.08926500014427 ] ] ], [ [ [ -69.517433791004578, 19.089415405771199 ], [ -69.516032605317193, 19.091830036609142 ], [ -69.516897242068737, 19.089014751413963 ], [ -69.517433791004578, 19.089415405771199 ] ] ], [ [ [ -69.520845477861442, 19.090343414423884 ], [ -69.518145949535594, 19.091930294048328 ], [ -69.520843803302597, 19.089807958998168 ], [ -69.520845477861442, 19.090343414423884 ] ] ], [ [ [ -68.664481142360756, 18.097437383696953 ], [ -68.652413756235262, 18.096191799376719 ], [ -68.659727383059462, 18.096904391472705 ], [ -68.664481142360756, 18.097437383696953 ] ] ], [ [ [ -68.570110264403681, 18.1150388989908 ], [ -68.757111569088067, 18.137013558812626 ], [ -68.784160367669983, 18.188442849458404 ], [ -68.606563515111318, 18.163204111191476 ], [ -68.570110264403681, 18.1150388989908 ] ] ], [ [ [ -68.640505230961494, 18.193067063890304 ], [ -68.637169985917325, 18.197757249520599 ], [ -68.636758814972964, 18.193465047320874 ], [ -68.640505230961494, 18.193067063890304 ] ] ], [ [ [ -69.01755279160794, 18.37628914622006 ], [ -68.994386044730973, 18.339077856275534 ], [ -69.025163260388524, 18.351488259047024 ], [ -69.01755279160794, 18.37628914622006 ] ] ], [ [ [ -69.185471313494915, 19.007397418242057 ], [ -69.19044667809105, 19.009834783596212 ], [ -69.173416881839657, 19.010936054350051 ], [ -69.185471313494915, 19.007397418242057 ] ] ], [ [ [ -69.172770063633166, 19.015877694946266 ], [ -69.168476123847213, 19.014116432166553 ], [ -69.174621163963252, 19.014358078241749 ], [ -69.172770063633166, 19.015877694946266 ] ] ], [ [ [ -69.470280197830235, 19.081229665219293 ], [ -69.470046807577589, 19.081788317797436 ], [ -69.469144080851692, 19.081158001833529 ], [ -69.470280197830235, 19.081229665219293 ] ] ], [ [ [ -69.466169594170452, 19.082170955129339 ], [ -69.465189391584289, 19.08187519819344 ], [ -69.466323621142223, 19.08116515822994 ], [ -69.466169594170452, 19.082170955129339 ] ] ], [ [ [ -69.499831400424114, 19.090909964028469 ], [ -69.499549703599143, 19.09088361597302 ], [ -69.499915182124212, 19.09061602368369 ], [ -69.499831400424114, 19.090909964028469 ] ] ], [ [ [ -69.501381607371059, 19.091147500782121 ], [ -69.501890955165479, 19.091896211837007 ], [ -69.501327178598203, 19.091816410752351 ], [ -69.501381607371059, 19.091147500782121 ] ] ], [ [ [ -69.500710165412656, 19.092703746124673 ], [ -69.500228553255042, 19.091792284693881 ], [ -69.500820090282545, 19.091817789762391 ], [ -69.500710165412656, 19.092703746124673 ] ] ] ] } },
{ "type": "Feature", "properties": { "region": "Metropolitana", "pct_micro": 91.407065914719652, "pct_informal": 61.263774901394761, "label": "Metropolitana: 91.4% micro; 61.3% informal" }, "geometry": { "type": "MultiPolygon", "coordinates": [ [ [ [ -69.626268159639508, 18.441327429815235 ], [ -69.625735929111286, 18.438371952322022 ], [ -69.63023748637049, 18.437211438799778 ], [ -69.626268159639508, 18.441327429815235 ] ] ], [ [ [ -69.614732154723754, 18.442647332950042 ], [ -69.614169552168477, 18.444071311013275 ], [ -69.61299743058369, 18.443702631656237 ], [ -69.614732154723754, 18.442647332950042 ] ] ], [ [ [ -70.139468202944983, 18.727693777451567 ], [ -70.095185410300104, 18.682694528392496 ], [ -70.020277299239098, 18.660103262399193 ], [ -69.965675620570494, 18.682900535685512 ], [ -69.958268847146897, 18.714693360214209 ], [ -69.915104253936235, 18.694498583809644 ], [ -69.866493353653851, 18.708629884671428 ], [ -69.786392548185603, 18.574518535439562 ], [ -69.721450456188549, 18.646727037842542 ], [ -69.616489026340361, 18.677279934276743 ], [ -69.570637831501529, 18.651065721321206 ], [ -69.590539349164587, 18.628619495207349 ], [ -69.572578198055183, 18.580404292339082 ], [ -69.614070627449422, 18.522704277487808 ], [ -69.58685686677849, 18.48908069255409 ], [ -69.51499031821055, 18.47480128694674 ], [ -69.521206661075112, 18.403797569677231 ], [ -69.61779696877619, 18.4478534486 ], [ -69.638252797365723, 18.400774699115104 ], [ -69.69502349257931, 18.452751214314262 ], [ -69.885374731030794, 18.463600574438427 ], [ -69.876136143495842, 18.469101774814124 ], [ -69.882345437465531, 18.48046966283702 ], [ -70.016620886495545, 18.413107277960727 ], [ -70.013477846952313, 18.476435432359967 ], [ -70.065915819349897, 18.464618588980077 ], [ -70.072326921293381, 18.515749784737356 ], [ -70.124760835140037, 18.526315533095101 ], [ -70.152872920310386, 18.594581134922056 ], [ -70.150296823523121, 18.628276548770192 ], [ -70.12582509339984, 18.630746980470104 ], [ -70.175453494980573, 18.720272382313805 ], [ -70.139468202944983, 18.727693777451567 ] ] ] ] } },
{ "type": "Feature", "properties": { "region": "Norte", "pct_micro": 94.783393623399277, "pct_informal": 67.942112897175562, "label": "Norte: 94.8% micro; 67.9% informal" }, "geometry": { "type": "MultiPolygon", "coordinates": [ [ [ [ -71.755126052376269, 19.82217091997062 ], [ -71.755801858834445, 19.81921033161947 ], [ -71.759946616915911, 19.821001673207242 ], [ -71.755126052376269, 19.82217091997062 ] ] ], [ [ [ -71.796480131445321, 19.830289658314005 ], [ -71.791500270089841, 19.824871546935793 ], [ -71.799885952591936, 19.827538954168311 ], [ -71.796480131445321, 19.830289658314005 ] ] ], [ [ [ -71.824776480247209, 19.856059744167027 ], [ -71.8098797151453, 19.844905983097906 ], [ -71.836554247157352, 19.863368304358783 ], [ -71.824776480247209, 19.856059744167027 ] ] ], [ [ [ -71.769273350485037, 19.864174460817711 ], [ -71.764584921390167, 19.862583770750785 ], [ -71.765147606910787, 19.861265876448222 ], [ -71.769273350485037, 19.864174460817711 ] ] ], [ [ [ -71.810524842114106, 19.863386011829846 ], [ -71.814634880265928, 19.860337218259605 ], [ -71.813300408266898, 19.863960631698717 ], [ -71.810524842114106, 19.863386011829846 ] ] ], [ [ [ -71.673925002177825, 19.866209509766296 ], [ -71.67509570762472, 19.870356645207252 ], [ -71.673435070603361, 19.870214547555548 ], [ -71.673925002177825, 19.866209509766296 ] ] ], [ [ [ -71.835880142124694, 19.873673508075726 ], [ -71.839701719761479, 19.861097196669746 ], [ -71.840893783242052, 19.876755697483652 ], [ -71.835880142124694, 19.873673508075726 ] ] ], [ [ [ -71.815596463942697, 19.872510330965532 ], [ -71.821527272534468, 19.876747772659041 ], [ -71.815440575382411, 19.875738182978811 ], [ -71.815596463942697, 19.872510330965532 ] ] ], [ [ [ -71.787963405531343, 19.884429537827991 ], [ -71.783215800706571, 19.883898950167833 ], [ -71.786630525533354, 19.881276886040411 ], [ -71.787963405531343, 19.884429537827991 ] ] ], [ [ [ -71.666942805938319, 19.884867042890171 ], [ -71.669590563625633, 19.890637638609203 ], [ -71.665418162555525, 19.889490284635389 ], [ -71.666942805938319, 19.884867042890171 ] ] ], [ [ [ -71.81217703269968, 19.889889857333888 ], [ -71.812013233893964, 19.89870640138346 ], [ -71.807614765139249, 19.893839622961032 ], [ -71.81217703269968, 19.889889857333888 ] ] ], [ [ [ -71.622363266696468, 19.904909121255574 ], [ -71.619600861738675, 19.903888879192301 ], [ -71.623994528117322, 19.903808290875126 ], [ -71.622363266696468, 19.904909121255574 ] ] ], [ [ [ -71.627903271390267, 19.906581291441402 ], [ -71.62568547538848, 19.903568878696444 ], [ -71.631940131996188, 19.905361295004226 ], [ -71.627903271390267, 19.906581291441402 ] ] ], [ [ [ -71.609762439030746, 19.906728874570522 ], [ -71.607636710619929, 19.908139329699381 ], [ -71.608995041122057, 19.906613724350173 ], [ -71.609762439030746, 19.906728874570522 ] ] ], [ [ [ -71.588666715928071, 19.91022250649533 ], [ -71.58925223351018, 19.909500636701555 ], [ -71.58905583899444, 19.910695410654558 ], [ -71.588666715928071, 19.91022250649533 ] ] ], [ [ [ -71.610951962239881, 19.909560225052413 ], [ -71.613077727550277, 19.909632828721669 ], [ -71.611544194122473, 19.910707304354972 ], [ -71.610951962239881, 19.909560225052413 ] ] ], [ [ [ -71.585945876376925, 19.917587420539935 ], [ -71.56145614925147, 19.917926303790011 ], [ -71.590327334107684, 19.912552793090533 ], [ -71.585945876376925, 19.917587420539935 ] ] ], [ [ [ -71.548932392753329, 19.916027256969365 ], [ -71.550859438599886, 19.915290764670427 ], [ -71.549313740027586, 19.916355891924795 ], [ -71.548932392753329, 19.916027256969365 ] ] ], [ [ [ -71.553532087161315, 19.917667865766489 ], [ -71.553304659044827, 19.919427436720365 ], [ -71.552842746875598, 19.917743236114426 ], [ -71.553532087161315, 19.917667865766489 ] ] ], [ [ [ -71.549259089768057, 19.919729327980306 ], [ -71.552438240996366, 19.918044773877227 ], [ -71.552386598010941, 19.919659599679051 ], [ -71.549259089768057, 19.919729327980306 ] ] ], [ [ [ -71.225403460317565, 19.174464438440722 ], [ -71.317787356471271, 19.172131487711319 ], [ -71.433144513322219, 19.244041967815502 ], [ -71.497650894013987, 19.251318797399076 ], [ -71.502123619892402, 19.274170044427571 ], [ -71.590615462843033, 19.283994110465475 ], [ -71.634521218960188, 19.230085741119378 ], [ -71.690513100060457, 19.238656119831298 ], [ -71.782733733476391, 19.329517677229219 ], [ -71.713641511323047, 19.371358161763773 ], [ -71.693954804662894, 19.360122087210879 ], [ -71.678363950257747, 19.445041078598841 ], [ -71.6882684796756, 19.512277116226901 ], [ -71.743871218364873, 19.584660031514225 ], [ -71.732039565281042, 19.646126933543478 ], [ -71.762021843085265, 19.693230852641253 ], [ -71.709644972445048, 19.694921204520472 ], [ -71.732955977710489, 19.702098243311298 ], [ -71.746657987325506, 19.795822186202464 ], [ -71.773410266302747, 19.758275428045515 ], [ -71.779196835180443, 19.778209505816672 ], [ -71.659630962593525, 19.857066967072328 ], [ -71.654630454753814, 19.898956272180797 ], [ -71.629521577570401, 19.881162074999889 ], [ -71.528962395890431, 19.909000531233236 ], [ -71.373924669165959, 19.856215363676306 ], [ -71.291668163715002, 19.846093553618399 ], [ -71.229346818385892, 19.786198917407535 ], [ -71.256888783649458, 19.829047915332453 ], [ -71.215293383828453, 19.838808645625274 ], [ -71.212398676946094, 19.870259577490266 ], [ -71.182146432694267, 19.834597589683 ], [ -71.119790127207068, 19.849340249955173 ], [ -71.178290840791973, 19.856634861430752 ], [ -71.099644388880819, 19.868771970197109 ], [ -71.061876977289771, 19.917860991743009 ], [ -70.993479548846636, 19.930740330694544 ], [ -70.933949201417988, 19.889955862595432 ], [ -70.932958850904697, 19.915732713094272 ], [ -70.838080272310989, 19.905163006348822 ], [ -70.781211533115226, 19.828880582428724 ], [ -70.742921092372839, 19.83708023266151 ], [ -70.704993775828953, 19.799684614623565 ], [ -70.63202013291567, 19.763934368891977 ], [ -70.527379644503938, 19.752975685410945 ], [ -70.512813643319916, 19.778840832107388 ], [ -70.448532504810444, 19.782359042754646 ], [ -70.303057809316215, 19.653288582796645 ], [ -70.156277801474673, 19.62011751183222 ], [ -70.083483091839881, 19.635517428439424 ], [ -70.086551484623484, 19.588032713793503 ], [ -70.063308005561595, 19.668880928085578 ], [ -69.988436698782223, 19.680781629793703 ], [ -69.899686478541085, 19.646170122902799 ], [ -69.884030767017563, 19.605855674667506 ], [ -69.903851239964183, 19.545932913289374 ], [ -69.868518256811527, 19.508539877475172 ], [ -69.867604349859022, 19.430840161206781 ], [ -69.841747712444416, 19.370891592622073 ], [ -69.748401157760327, 19.285377090992235 ], [ -69.463164568806107, 19.327546752507967 ], [ -69.328885408093612, 19.283593773602387 ], [ -69.23635084184474, 19.363938824700149 ], [ -69.215208202763165, 19.352704587904839 ], [ -69.254472181110273, 19.29430458313303 ], [ -69.163699955638037, 19.30505233415402 ], [ -69.154748652094241, 19.278248514422813 ], [ -69.228965865243737, 19.179974683651157 ], [ -69.622825124608269, 19.224352287755341 ], [ -69.639206506524729, 19.098732386613442 ], [ -69.620315490892608, 19.077229716260113 ], [ -69.617028155855479, 19.081470151888315 ], [ -69.615601101498726, 19.079525151193419 ], [ -69.614391809975956, 19.081689071536417 ], [ -69.613213060621433, 19.079650590891926 ], [ -69.612265193153078, 19.081587698251248 ], [ -69.606935888544243, 19.078887384445526 ], [ -69.604088607153358, 19.079418639618211 ], [ -69.624300218844496, 18.992196295100683 ], [ -69.733628791310323, 19.095188970570902 ], [ -69.865568376170415, 19.089773548380023 ], [ -69.869942600401444, 19.044449722405581 ], [ -69.90578783288224, 19.049503326866816 ], [ -69.894797406479825, 19.097106540812472 ], [ -69.896416288684605, 19.098279528950314 ], [ -69.95318206547644, 18.904120989286394 ], [ -69.997302613603225, 18.887886896502813 ], [ -70.01602967003538, 18.915781809279306 ], [ -70.048998874887303, 18.880843803711898 ], [ -70.193790852248739, 18.874603972212267 ], [ -70.302885218865015, 18.776148856540601 ], [ -70.29718398547935, 18.741615689838365 ], [ -70.32960227269119, 18.715435642799513 ], [ -70.540892213859763, 18.796943161599184 ], [ -70.529941660742082, 18.76023614596124 ], [ -70.599301695674882, 18.710517764879167 ], [ -70.592110598571423, 18.686442179896044 ], [ -70.696079191293791, 18.685259284329668 ], [ -70.683981629248052, 18.757256200886196 ], [ -70.755413148676837, 18.772419853948744 ], [ -70.8369438240493, 18.880252626760331 ], [ -70.83772099763668, 18.989236434282358 ], [ -70.891087314329866, 18.991336458767947 ], [ -70.96020700737435, 19.04470047926986 ], [ -71.046680403621465, 19.02208696674354 ], [ -71.217049269742333, 19.177991018867953 ], [ -71.225990218915967, 19.196038486263401 ], [ -71.225403460317565, 19.174464438440722 ] ], [ [ -70.938157493733087, 19.677278221168017 ], [ -71.000895245068151, 19.713058980391423 ], [ -71.229346818385892, 19.786198917407535 ], [ -70.938157493733087, 19.677278221168017 ] ], [ [ -70.929775192396946, 19.591995256976549 ], [ -70.893150443521904, 19.563414652830382 ], [ -70.89313531818533, 19.563482798207918 ], [ -70.929775192396946, 19.591995256976549 ] ], [ [ -71.083166422301332, 19.47269952058382 ], [ -71.084067065709476, 19.471298070323872 ], [ -70.992611492017318, 19.433632325293402 ], [ -71.083166422301332, 19.47269952058382 ] ], [ [ -71.09739580933865, 19.450554761237608 ], [ -71.073107532441284, 19.422006082066272 ], [ -71.072398569697228, 19.422441456875912 ], [ -71.085021281461479, 19.469813230033274 ], [ -71.09739580933865, 19.450554761237608 ] ], [ [ -71.252633667552303, 19.328441246816254 ], [ -71.252667018978599, 19.328034170622509 ], [ -71.218285054488746, 19.37405600145421 ], [ -71.252633667552303, 19.328441246816254 ] ], [ [ -71.258128814910336, 19.261360568956359 ], [ -71.25798240996555, 19.261217826879538 ], [ -71.255036969697613, 19.299105685925692 ], [ -71.258128814910336, 19.261360568956359 ] ], [ [ -70.893091218306253, 19.563681484622514 ], [ -70.875776193521304, 19.641661490152227 ], [ -70.882615955730017, 19.645568575003615 ], [ -70.893091218306253, 19.563681484622514 ] ], [ [ -70.457539402780966, 19.345613490466715 ], [ -70.453434106024957, 19.36825929503226 ], [ -70.464014654492487, 19.340276782245191 ], [ -70.455406019384412, 19.340597104721471 ], [ -70.457539402780966, 19.345613490466715 ] ], [ [ -70.281830772376779, 19.155392252528774 ], [ -70.360390569489482, 19.231721327938228 ], [ -70.281913905249112, 19.155390017987791 ], [ -70.281830772376779, 19.155392252528774 ] ], [ [ -70.054930651957662, 19.143885224168603 ], [ -70.066770314261461, 19.144490091568823 ], [ -70.049738866181528, 19.137624368828998 ], [ -70.054930651957662, 19.143885224168603 ] ], [ [ -69.996313758025693, 19.073160634649252 ], [ -70.042444323185137, 19.128826672133727 ], [ -70.039646939154011, 19.101818741818441 ], [ -69.996313758025693, 19.073160634649252 ] ], [ [ -69.952067847527317, 19.126444876683923 ], [ -69.945989455053862, 19.097992865643022 ], [ -69.951529215326772, 19.126348500233391 ], [ -69.952067847527317, 19.126444876683923 ] ], [ [ -69.929796176077701, 19.122458426809917 ], [ -69.950738848852865, 19.126207078356028 ], [ -69.900705250241018, 19.101387014678487 ], [ -69.929796176077701, 19.122458426809917 ] ], [ [ -70.945339024707991, 19.095856370291798 ], [ -70.945654440235998, 19.094771410225867 ], [ -70.847801114472503, 19.095878466475515 ], [ -70.945339024707991, 19.095856370291798 ] ], [ [ -70.732185376943548, 19.165084725883634 ], [ -70.808057345632363, 19.140005303122905 ], [ -70.73218809504273, 19.165038676902469 ], [ -70.732185376943548, 19.165084725883634 ] ], [ [ -70.722974889513296, 19.284550698550227 ], [ -70.679526681805882, 19.264981795942962 ], [ -70.704775173629699, 19.285159485009071 ], [ -70.722974889513296, 19.284550698550227 ] ], [ [ -70.673642782106768, 19.286196668569019 ], [ -70.67829690012988, 19.286041952865308 ], [ -70.673865283797127, 19.284883540540552 ], [ -70.673642782106768, 19.286196668569019 ] ], [ [ -70.635645784540728, 19.373977135619377 ], [ -70.645642748584649, 19.349993798692097 ], [ -70.613484964192935, 19.370933733387783 ], [ -70.635645784540728, 19.373977135619377 ] ], [ [ -70.514742515458778, 19.357338614240778 ], [ -70.570674191775851, 19.365046365484289 ], [ -70.486972192353505, 19.34471814554573 ], [ -70.514742515458778, 19.357338614240778 ] ], [ [ -70.476383681039223, 19.307750814944288 ], [ -70.476373242781506, 19.307845655469663 ], [ -70.499371399811253, 19.311349236746757 ], [ -70.499420601772727, 19.311216797906329 ], [ -70.476383681039223, 19.307750814944288 ] ], [ [ -70.433465887692833, 19.478335552575089 ], [ -70.419748356251773, 19.553883636577005 ], [ -70.442688929282752, 19.506126669564694 ], [ -70.433465887692833, 19.478335552575089 ] ], [ [ -70.20751779742362, 19.51885044371426 ], [ -70.196696687553199, 19.517116547415846 ], [ -70.197719860590851, 19.557575762063113 ], [ -70.20751779742362, 19.51885044371426 ] ], [ [ -70.156872347211291, 19.550674573864189 ], [ -70.087138093217149, 19.585991311400822 ], [ -70.086981170723519, 19.586537407650667 ], [ -70.156872347211291, 19.550674573864189 ] ], [ [ -71.120356098474005, 19.860682281407929 ], [ -71.122078803188927, 19.856010274489371 ], [ -71.117362936576555, 19.859821446146253 ], [ -71.120356098474005, 19.860682281407929 ] ] ], [ [ [ -70.739415580991093, 19.835532901729234 ], [ -70.741288358456785, 19.836151500827384 ], [ -70.740101708669698, 19.836845119312624 ], [ -70.739415580991093, 19.835532901729234 ] ] ], [ [ [ -71.276006325758331, 19.839231708149132 ], [ -71.2743214287662, 19.837679495520508 ], [ -71.275145942320862, 19.83719709095627 ], [ -71.276006325758331, 19.839231708149132 ] ] ], [ [ [ -71.272853974378492, 19.84556450289633 ], [ -71.272004798181086, 19.844317713038606 ], [ -71.272839412805837, 19.844541889483928 ], [ -71.272853974378492, 19.84556450289633 ] ] ], [ [ [ -71.28358295636599, 19.84582025148347 ], [ -71.286714752261929, 19.843892570264607 ], [ -71.286986748475897, 19.84546278008338 ], [ -71.28358295636599, 19.84582025148347 ] ] ], [ [ [ -71.265503508263393, 19.849040315163339 ], [ -71.263904032514759, 19.847644968892322 ], [ -71.264980335207284, 19.847317455927509 ], [ -71.265503508263393, 19.849040315163339 ] ] ], [ [ [ -71.308240698551032, 19.869317838408197 ], [ -71.304377279071957, 19.86954397860395 ], [ -71.307791393602884, 19.868438608902284 ], [ -71.308240698551032, 19.869317838408197 ] ] ], [ [ [ -71.304324461397925, 19.87866161813384 ], [ -71.296501543556943, 19.871239720151141 ], [ -71.314045634656225, 19.87541978692088 ], [ -71.304324461397925, 19.87866161813384 ] ] ], [ [ [ -71.327633351282429, 19.876556684232391 ], [ -71.332588055759516, 19.877121750317432 ], [ -71.327121755380333, 19.877559044900345 ], [ -71.327633351282429, 19.876556684232391 ] ] ], [ [ [ -71.325677195949368, 19.87953540236078 ], [ -71.321070843580458, 19.881221116713427 ], [ -71.317759057135859, 19.87784600358157 ], [ -71.325677195949368, 19.87953540236078 ] ] ], [ [ [ -71.32941804108782, 19.878657892586833 ], [ -71.330338629225707, 19.881632856050878 ], [ -71.327722221742206, 19.880240187045423 ], [ -71.32941804108782, 19.878657892586833 ] ] ], [ [ [ -71.323951465010722, 19.881483813375134 ], [ -71.327471595102566, 19.882300283551704 ], [ -71.323695947750068, 19.883212081265331 ], [ -71.323951465010722, 19.881483813375134 ] ] ], [ [ [ -71.328428182732921, 19.885340261419195 ], [ -71.328014245535002, 19.883422066299904 ], [ -71.329653982953559, 19.885193269665361 ], [ -71.328428182732921, 19.885340261419195 ] ] ], [ [ [ -71.415822317344123, 19.881549747677926 ], [ -71.428174635651487, 19.882718180494063 ], [ -71.427753563226489, 19.886749283127191 ], [ -71.415822317344123, 19.881549747677926 ] ] ], [ [ [ -71.346602948159344, 19.884799008866725 ], [ -71.34259371241815, 19.885623974132219 ], [ -71.341958911765573, 19.884866954810686 ], [ -71.346602948159344, 19.884799008866725 ] ] ], [ [ [ -71.358482641217535, 19.897215212880774 ], [ -71.340919725816335, 19.890543043373928 ], [ -71.36276028318585, 19.895447097607377 ], [ -71.358482641217535, 19.897215212880774 ] ] ], [ [ [ -71.424229535216838, 19.888359610853762 ], [ -71.456844543880422, 19.907228228229847 ], [ -71.430541317650309, 19.901798947399968 ], [ -71.424229535216838, 19.888359610853762 ] ] ], [ [ [ -71.548938891590666, 19.915009046796371 ], [ -71.547344268851191, 19.915758814085912 ], [ -71.547130571212946, 19.915335215500438 ], [ -71.548938891590666, 19.915009046796371 ] ] ], [ [ [ -71.531597709932043, 19.916460147056018 ], [ -71.536986275209415, 19.921435547764563 ], [ -71.529565302876435, 19.918008378772122 ], [ -71.531597709932043, 19.916460147056018 ] ] ], [ [ [ -71.519378980453823, 19.920839514278253 ], [ -71.518667974034059, 19.917865171699603 ], [ -71.523033683235695, 19.919503140323446 ], [ -71.519378980453823, 19.920839514278253 ] ] ], [ [ [ -69.605904296277203, 19.080610108331229 ], [ -69.605962086273252, 19.079102963997386 ], [ -69.609350075243796, 19.08120198372173 ], [ -69.605904296277203, 19.080610108331229 ] ] ], [ [ [ -69.622403888104259, 19.08748157458519 ], [ -69.62287257996347, 19.086743199866472 ], [ -69.62274686053938, 19.087664613488972 ], [ -69.622403888104259, 19.08748157458519 ] ] ], [ [ [ -69.626249888275993, 19.088590975513121 ], [ -69.624104687689623, 19.089078531207448 ], [ -69.625639370976245, 19.08805819413503 ], [ -69.626249888275993, 19.088590975513121 ] ] ], [ [ [ -69.626610993872745, 19.089685668530343 ], [ -69.627125633788197, 19.091443320796955 ], [ -69.626435658720979, 19.09130767483818 ], [ -69.626610993872745, 19.089685668530343 ] ] ], [ [ [ -69.631902356499069, 19.093974602604458 ], [ -69.632223232990384, 19.094979106097977 ], [ -69.631503767801306, 19.094996128087779 ], [ -69.631902356499069, 19.093974602604458 ] ] ], [ [ [ -69.286153411513581, 19.161866662663577 ], [ -69.285028559373842, 19.162135751635251 ], [ -69.285801233358967, 19.16156645403553 ], [ -69.286153411513581, 19.161866662663577 ] ] ], [ [ [ -69.276168111207141, 19.162990293293078 ], [ -69.275559672499625, 19.163659556758958 ], [ -69.275137306417662, 19.163437406111552 ], [ -69.276168111207141, 19.162990293293078 ] ] ], [ [ [ -69.281098399931238, 19.167121009355672 ], [ -69.272173250832026, 19.166530867482098 ], [ -69.271902085736784, 19.165196492137241 ], [ -69.281098399931238, 19.167121009355672 ] ] ], [ [ [ -69.271109266300144, 19.166116794779036 ], [ -69.270735316259234, 19.166830252471851 ], [ -69.269984142118361, 19.166252122359946 ], [ -69.271109266300144, 19.166116794779036 ] ] ], [ [ [ -69.270549648593118, 19.167988998768834 ], [ -69.269849129811988, 19.169727737858818 ], [ -69.269004599447655, 19.169417080461219 ], [ -69.270549648593118, 19.167988998768834 ] ] ], [ [ [ -69.22682178454501, 19.178006405320822 ], [ -69.226664104320307, 19.17843267364545 ], [ -69.226452845782163, 19.178257492084207 ], [ -69.22682178454501, 19.178006405320822 ] ] ], [ [ [ -69.221787732942701, 19.180995071146249 ], [ -69.221128324703471, 19.181020930385309 ], [ -69.221312399670438, 19.180594634961867 ], [ -69.221787732942701, 19.180995071146249 ] ] ], [ [ [ -69.276149964765935, 19.183086862293703 ], [ -69.275527818499825, 19.183708108112761 ], [ -69.275482320715497, 19.183116061589107 ], [ -69.276149964765935, 19.183086862293703 ] ] ] ] } },
{ "type": "Feature", "properties": { "region": "Sur", "pct_micro": 96.922946989105043, "pct_informal": 76.755270516970043, "label": "Sur: 96.9% micro; 76.8% informal" }, "geometry": { "type": "MultiPolygon", "coordinates": [ [ [ [ -71.647948451507332, 17.477581493024832 ], [ -71.634846394466663, 17.472422042999614 ], [ -71.643175037359711, 17.470332694746908 ], [ -71.647948451507332, 17.477581493024832 ] ] ], [ [ [ -71.64624801345164, 17.484631058182668 ], [ -71.647026444169313, 17.486907105656393 ], [ -71.645358140399892, 17.486973226755705 ], [ -71.64624801345164, 17.484631058182668 ] ] ], [ [ [ -71.538605530849608, 17.595723031839213 ], [ -71.511807370030908, 17.61265004603279 ], [ -71.4692151102266, 17.580140072112844 ], [ -71.548886900294988, 17.54097704354685 ], [ -71.538605530849608, 17.595723031839213 ] ] ], [ [ [ -71.709396193333262, 17.632372887012089 ], [ -71.709333097945319, 17.63081111424912 ], [ -71.710940372366323, 17.631970525251912 ], [ -71.709396193333262, 17.632372887012089 ] ] ], [ [ [ -71.278856773549236, 17.838777010821566 ], [ -71.284208945103941, 17.841011066784809 ], [ -71.279319340670057, 17.841205986967228 ], [ -71.278856773549236, 17.838777010821566 ] ] ], [ [ [ -71.098426005759435, 18.281249577737608 ], [ -71.107961598628108, 18.251808536920791 ], [ -71.055184438438744, 18.155132125685807 ], [ -71.073044246002624, 18.108460791004731 ], [ -71.221664047305154, 17.898241453706479 ], [ -71.284622921350987, 17.85184006514714 ], [ -71.320887921093615, 17.803815074369915 ], [ -71.421563223404576, 17.596654989933203 ], [ -71.53444293495248, 17.752207563610323 ], [ -71.662258445641754, 17.750172070538628 ], [ -71.698799610508871, 17.771100317521121 ], [ -71.634346357812504, 17.833171707571065 ], [ -71.678902943676846, 17.896799496562124 ], [ -71.672576155428644, 17.962162534473624 ], [ -71.759119630804548, 18.031146726171734 ], [ -71.73508870109427, 18.095225375915447 ], [ -71.746609590062008, 18.147051706085151 ], [ -71.78819516333327, 18.180694805859869 ], [ -71.696020156196681, 18.340636673297407 ], [ -71.903955821514089, 18.456036815898031 ], [ -71.913586869578992, 18.483983195111612 ], [ -71.881148521645798, 18.502843693915988 ], [ -72.011472398157039, 18.621471096507339 ], [ -71.965716472192383, 18.656474539931882 ], [ -71.815728838291122, 18.630129027050451 ], [ -71.789228623685133, 18.687835583331911 ], [ -71.784782572522957, 18.687321767095231 ], [ -71.784356215083349, 18.704510898971467 ], [ -71.739239439450685, 18.723777204654734 ], [ -71.729069444264766, 18.873871915447783 ], [ -71.770848772628383, 18.905791341923411 ], [ -71.782546376360344, 18.95452719539156 ], [ -71.835840154649716, 18.970250266625182 ], [ -71.881896603675798, 18.941452385606773 ], [ -71.886397938223737, 18.95988781523603 ], [ -71.833824637057049, 19.005072293999827 ], [ -71.789128538583398, 18.993158022763218 ], [ -71.701149788200695, 19.073210346670646 ], [ -71.70234149105174, 19.105908742432181 ], [ -71.654152713564287, 19.115918636563581 ], [ -71.621746104340716, 19.206528214466712 ], [ -71.638900619709389, 19.231734072289981 ], [ -71.588183874968479, 19.283158400744544 ], [ -71.502123619892402, 19.274170044427571 ], [ -71.497650894013987, 19.251318797399076 ], [ -71.433144513322219, 19.244041967815502 ], [ -71.317787356471271, 19.172131487711319 ], [ -71.203406157428958, 19.177726347322594 ], [ -71.131649245111589, 19.116323674643791 ], [ -71.131713147975333, 19.077968074180799 ], [ -71.046680403621465, 19.02208696674354 ], [ -70.960930804779778, 19.044959281246769 ], [ -70.895655122808861, 19.005768581515039 ], [ -70.892058201055761, 18.983814294469255 ], [ -70.862635848767567, 19.001319084670008 ], [ -70.83772099763668, 18.989236434282358 ], [ -70.816618655413137, 18.838461319273563 ], [ -70.755413148676837, 18.772419853948744 ], [ -70.683981629248052, 18.757256200886196 ], [ -70.696079191293791, 18.685259284329668 ], [ -70.592110598571423, 18.686442179896044 ], [ -70.599301695674882, 18.710517764879167 ], [ -70.529941660742082, 18.76023614596124 ], [ -70.542296184993347, 18.796801684589621 ], [ -70.32960227269119, 18.715435642799513 ], [ -70.29718398547935, 18.741615689838365 ], [ -70.302885218865015, 18.776148856540601 ], [ -70.24870966856524, 18.807630611623829 ], [ -70.176020002096408, 18.751728329691403 ], [ -70.125865359095116, 18.630956800800146 ], [ -70.150296823523121, 18.628276548770192 ], [ -70.152872920310386, 18.594581134922056 ], [ -70.124760835140037, 18.526315533095101 ], [ -70.092152569414054, 18.534955584145038 ], [ -70.065915819349897, 18.464618588980077 ], [ -70.013958650072951, 18.4766257636551 ], [ -70.002047999771932, 18.448014044875787 ], [ -70.153113062262463, 18.23121333372081 ], [ -70.392033172804744, 18.237308694060758 ], [ -70.501345569219808, 18.192855415769579 ], [ -70.563902949423323, 18.204063986989599 ], [ -70.5476454752, 18.228816027570378 ], [ -70.511143276784111, 18.218508261365795 ], [ -70.59203673935626, 18.278004614295231 ], [ -70.571582356149264, 18.317790491611849 ], [ -70.581813844767424, 18.405920868956208 ], [ -70.666879019171716, 18.431431910144497 ], [ -70.709762945134699, 18.410031666654259 ], [ -70.726931673326376, 18.354798088951334 ], [ -70.804047558335228, 18.35346984305647 ], [ -70.828348266419368, 18.329528249149465 ], [ -70.841583957861829, 18.347663113360344 ], [ -70.914285188994384, 18.264226493569389 ], [ -70.966830976826657, 18.252099297056105 ], [ -70.962722116304988, 18.265302277587278 ], [ -71.046875239990754, 18.316722756129789 ], [ -71.098426005759435, 18.281249577737608 ] ], [ [ -71.358470103538124, 18.587906261290758 ], [ -71.612379776644673, 18.667312554356922 ], [ -71.358619227496021, 18.587770441426262 ], [ -71.358470103538124, 18.587906261290758 ] ], [ [ -71.161560493783981, 18.619117692772122 ], [ -71.180429301328232, 18.619840003908703 ], [ -71.121059656184229, 18.561344202079525 ], [ -71.161560493783981, 18.619117692772122 ] ], [ [ -70.948579791189502, 18.310732416359549 ], [ -70.950545956230286, 18.312438384875648 ], [ -70.957160440043893, 18.283170809677809 ], [ -70.948579791189502, 18.310732416359549 ] ], [ [ -71.621906584162801, 18.41008497041685 ], [ -71.515034953941708, 18.451180759213251 ], [ -71.624980146169122, 18.494757991371497 ], [ -71.631308208340286, 18.529269714388938 ], [ -71.705992023680054, 18.564456484269115 ], [ -71.754183520191887, 18.5086208326099 ], [ -71.830961753310262, 18.527595987410699 ], [ -71.621906584162801, 18.41008497041685 ] ], [ [ -70.972027856626525, 18.796231211385248 ], [ -70.995829386213813, 18.897587099873032 ], [ -70.996201213508812, 18.8974424343881 ], [ -70.972027856626525, 18.796231211385248 ] ], [ [ -70.97725444076417, 18.904812762241217 ], [ -70.923946749206465, 18.924386709871712 ], [ -70.924165181076418, 18.925451271344201 ], [ -70.97725444076417, 18.904812762241217 ] ], [ [ -70.9282180219776, 18.945200295098324 ], [ -70.931102654372282, 18.959253162910397 ], [ -70.93255309627564, 18.958842213081518 ], [ -70.9282180219776, 18.945200295098324 ] ] ] ] } }
]
}
